"","FIPS","ISO2","ISO3","UN","NAME","AREA","POP2005","REGION","SUBREGION","LON","LAT","GDESC","GVALUE","GYEAR"
"4","AM","AM","ARM",51,"Armenia",2820,3017661,142,145,44.563,40.534,"ACACIUS ",7,NA
"192","SZ","CH","CHE",756,"Switzerland",4000,7424389,150,155,7.908,46.861,"ACACIUS ",22,NA
"71","GM","DE","DEU",276,"Germany",34895,82652369,150,155,9.851,51.11,"ACACIUS ",65,NA
"187","SP","ES","ESP",724,"Spain",49904,43397491,150,39,-3.649,40.227," ACCA ",70,528
"80","HU","HU","HUN",348,"Hungary",9210,10086387,150,151,19.134,47.07," ADALBERT OF PRAGUE ",25,617
"711","GM","DE","DEU",276,"Germany",34895,82652369,150,155,9.851,51.11," ADALBERT OF PRAGUE ",65,617
"163","PL","PL","POL",616,"Poland",30629,38195558,150,151,19.401,52.125," ADALBERT OF PRAGUE ",17,617
"138",NA,"PS","PSE",275,"Palestine",0,3762005,142,145,35.278,32.037," ADOMNAN ",16,499
"206","UK","GB","GBR",826,"United Kingdom",24193,60244834,150,154,-1.6,53," ADOMNAN ",302,499
"50","EI","IE","IRL",372,"Ireland",6889,4143294,150,154,-8.152,53.177," ADOMNAN ",93,499
"2061","UK","GB","GBR",826,"United Kingdom",24193,60244834,150,154,-1.6,53," ADRIAN OF CANTERBURY ",302,504
"501","EI","IE","IRL",372,"Ireland",6889,4143294,150,154,-8.152,53.177," ADRIAN OF CANTERBURY ",93,504
"502","EI","IE","IRL",372,"Ireland",6889,4143294,150,154,-8.152,53.177," AGILBERT ",93,467
"2062","UK","GB","GBR",826,"United Kingdom",24193,60244834,150,154,-1.6,53," AGILBERT ",302,467
"2063","UK","GB","GBR",826,"United Kingdom",24193,60244834,150,154,-1.6,53," AGNES ",302,328
"2064","UK","GB","GBR",826,"United Kingdom",24193,60244834,150,154,-1.6,53," AIDAN ",302,460
"503","EI","IE","IRL",372,"Ireland",6889,4143294,150,154,-8.152,53.177," AIDAN ",93,460
"2065","UK","GB","GBR",826,"United Kingdom",24193,60244834,150,154,-1.6,53," AILBE ",302,437
"504","EI","IE","IRL",372,"Ireland",6889,4143294,150,154,-8.152,53.177," AILBE ",93,437
"2066","UK","GB","GBR",826,"United Kingdom",24193,60244834,150,154,-1.6,53," AILRED OF RIEVAULX ",302,78
"64","FR","FR","FRA",250,"France",55010,60990544,150,155,2.55,46.565," ALACOQUE MARGARET MARY ",134,225
"2067","UK","GB","GBR",826,"United Kingdom",24193,60244834,150,154,-1.6,53," ALBAN ",302,308
"641","FR","FR","FRA",250,"France",55010,60990544,150,155,2.55,46.565," ALBAN ",134,308
"2068","UK","GB","GBR",826,"United Kingdom",24193,60244834,150,154,-1.6,53," ALBERIC ",302,53
"642","FR","FR","FRA",250,"France",55010,60990544,150,155,2.55,46.565," ALBERIC ",134,53
"712","GM","DE","DEU",276,"Germany",34895,82652369,150,155,9.851,51.11," ALBERT THE GREAT ",65,117
"713","GM","DE","DEU",276,"Germany",34895,82652369,150,155,9.851,51.11," ALBURGA ",65,564
"714","GM","DE","DEU",276,"Germany",34895,82652369,150,155,9.851,51.11," ALCMUND ",65,548
"2069","UK","GB","GBR",826,"United Kingdom",24193,60244834,150,154,-1.6,53," ALDHELM ",302,502
"505","EI","IE","IRL",372,"Ireland",6889,4143294,150,154,-8.152,53.177," ALDHELM ",93,502
"20610","UK","GB","GBR",826,"United Kingdom",24193,60244834,150,154,-1.6,53," ALDWYN ALDWINE ",302,517
"506","EI","IE","IRL",372,"Ireland",6889,4143294,150,154,-8.152,53.177," ALDWYN ALDWINE ",93,517
"174","RS","RU","RUS",643,"Russia",1638094,143953092,150,151,96.689,61.988," ALEXANDER NEVSKI ",13,111
"20611","UK","GB","GBR",826,"United Kingdom",24193,60244834,150,154,-1.6,53," ALEXIS OF ROME ",302,NA
"20612","UK","GB","GBR",826,"United Kingdom",24193,60244834,150,154,-1.6,53," ALFWOLD ",302,30
"20613","UK","GB","GBR",826,"United Kingdom",24193,60244834,150,154,-1.6,53," ALKELDA ",302,559
"20614","UK","GB","GBR",826,"United Kingdom",24193,60244834,150,154,-1.6,53," ALLEN ",302,NA
"507","EI","IE","IRL",372,"Ireland",6889,4143294,150,154,-8.152,53.177," ALMOND JOHN ",93,195
"20615","UK","GB","GBR",826,"United Kingdom",24193,60244834,150,154,-1.6,53," ALMOND JOHN ",302,195
"508","EI","IE","IRL",372,"Ireland",6889,4143294,150,154,-8.152,53.177," ALNOTH ",93,NA
"20616","UK","GB","GBR",826,"United Kingdom",24193,60244834,150,154,-1.6,53," ALNOTH ",302,NA
"20617","UK","GB","GBR",826,"United Kingdom",24193,60244834,150,154,-1.6,53," ALPHEGE ",302,15
"20618","UK","GB","GBR",826,"United Kingdom",24193,60244834,150,154,-1.6,53," ALPHEGE ",302,604
"20619","UK","GB","GBR",826,"United Kingdom",24193,60244834,150,154,-1.6,53," ALPHONSUS LIGUORI ",302,246
"509","EI","IE","IRL",372,"Ireland",6889,4143294,150,154,-8.152,53.177," ALPHONSUS LIGUORI ",93,246
"208","US","US","USA",840,"United States",915896,299846449,19,21,-98.606,39.622," ALPHONSUS LIGUORI ",4,246
"20620","UK","GB","GBR",826,"United Kingdom",24193,60244834,150,154,-1.6,53," AMAND ",302,476
"20621","UK","GB","GBR",826,"United Kingdom",24193,60244834,150,154,-1.6,53," AMBROSE ",302,354
"20622","UK","GB","GBR",826,"United Kingdom",24193,60244834,150,154,-1.6,53," AMPHIBALUS ",302,NA
"20623","UK","GB","GBR",826,"United Kingdom",24193,60244834,150,154,-1.6,53," ANASTASIUS ",302,442
"1871","SP","ES","ESP",724,"Spain",49904,43397491,150,39,-3.649,40.227," ANASTASIUS OF CLUNY ",70,43
"73","GR","GR","GRC",300,"Greece",12890,11099737,150,39,21.766,39.666," ANDREW ",4,422
"85","IT","IT","ITA",380,"Italy",29411,5864636,150,39,12.8,42.7," ANDREW ",87,422
"643","FR","FR","FRA",250,"France",55010,60990544,150,155,2.55,46.565," ANDREW ",134,422
"20624","UK","GB","GBR",826,"United Kingdom",24193,60244834,150,154,-1.6,53," ANDREW ",302,422
"55","ET","ET","ETH",231,"Ethiopia",100000,78985857,2,14,39.616,8.626," ANDREW ",7,422
"1741","RS","RU","RUS",643,"Russia",1638094,143953092,150,151,96.689,61.988," ANDREW ",13,422
"20625","UK","GB","GBR",826,"United Kingdom",24193,60244834,150,154,-1.6,53," ANNE ",302,381
"23","CA","CA","CAN",124,"Canada",909351,32270507,19,21,-109.433,59.081," ANNE ",4,381
"20626","UK","GB","GBR",826,"United Kingdom",24193,60244834,150,154,-1.6,53," ANSELM ",302,53
"5010","EI","IE","IRL",372,"Ireland",6889,4143294,150,154,-8.152,53.177," ANSELM ",93,53
"44","DA","DK","DNK",208,"Denmark",4243,5416945,150,154,9.264,56.058," ANSKAR ",16,579
"190","SW","SE","SWE",752,"Sweden",41033,9038049,150,154,15.27,62.011," ANSKAR ",26,579
"154","NO","NO","NOR",578,"Norway",30625,4638836,150,154,8.74,61.152," ANSKAR ",18,579
"715","GM","DE","DEU",276,"Germany",34895,82652369,150,155,9.851,51.11," ANSKAR ",65,579
"441","DA","DK","DNK",208,"Denmark",4243,5416945,150,154,9.264,56.058," ANTA ",16,NA
"1901","SW","SE","SWE",752,"Sweden",41033,9038049,150,154,15.27,62.011," ANTA ",26,NA
"1541","NO","NO","NOR",578,"Norway",30625,4638836,150,154,8.74,61.152," ANTA ",18,NA
"716","GM","DE","DEU",276,"Germany",34895,82652369,150,155,9.851,51.11," ANTA ",65,NA
"113","MO","MA","MAR",504,"Morocco",44630,30494991,2,15,-5.758,32.706," ANTONY OF PADUA ",4,99
"644","FR","FR","FRA",250,"France",55010,60990544,150,155,2.55,46.565," ANTONY OF PADUA ",134,99
"851","IT","IT","ITA",380,"Italy",29411,5864636,150,39,12.8,42.7," ANTONY OF PADUA ",87,99
"165","PO","PT","PRT",620,"Portugal",9150,10528226,150,39,-8.058,40.309," ANTONY OF PADUA ",15,99
"20","BR","BR","BRA",76,"Brazil",845942,186830759,19,5,-53.089,-10.772," ANTONY OF PADUA ",5,99
"5011","EI","IE","IRL",372,"Ireland",6889,4143294,150,154,-8.152,53.177," ANTONY OF PADUA ",93,99
"20627","UK","GB","GBR",826,"United Kingdom",24193,60244834,150,154,-1.6,53," ARMEL ",302,403
"20628","UK","GB","GBR",826,"United Kingdom",24193,60244834,150,154,-1.6,53," ARROWSMITH EDMUND ",302,206
"20629","UK","GB","GBR",826,"United Kingdom",24193,60244834,150,154,-1.6,53," ATHANASIUS ",302,347
"20630","UK","GB","GBR",826,"United Kingdom",24193,60244834,150,154,-1.6,53," AUGUSTINE OF CANTERBURY ",302,426
"1","AG","DZ","DZA",12,"Algeria",238174,32854159,2,15,2.632,28.163," AUGUSTINE OF HIPPO ",4,362
"20631","UK","GB","GBR",826,"United Kingdom",24193,60244834,150,154,-1.6,53," AUGUSTINE OF HIPPO ",302,362
"1542","NO","NO","NOR",578,"Norway",30625,4638836,150,154,8.74,61.152," AUGUSTINE OF TRONDHEIM ",18,86
"20632","UK","GB","GBR",826,"United Kingdom",24193,60244834,150,154,-1.6,53," AUGUSTINE OF TRONDHEIM ",302,86
"20633","UK","GB","GBR",826,"United Kingdom",24193,60244834,150,154,-1.6,53," BABYLAS ",302,308
"645","FR","FR","FRA",250,"France",55010,60990544,150,155,2.55,46.565," BARAT MADELEINE SOPHIE ",134,267
"128","BE","BE","BEL",56,"Belgium",0,10398049,150,155,4.664,50.643," BARAT MADELEINE SOPHIE ",8,267
"56","AU","AT","AUT",40,"Austria",8245,8291979,150,155,14.912,47.683," BARAT MADELEINE SOPHIE ",24,267
"1921","SZ","CH","CHE",756,"Switzerland",4000,7424389,150,155,7.908,46.861," BARAT MADELEINE SOPHIE ",22,267
"646","FR","FR","FRA",250,"France",55010,60990544,150,155,2.55,46.565," BARBARA ",134,NA
"20634","UK","GB","GBR",826,"United Kingdom",24193,60244834,150,154,-1.6,53," BARLOW AMBROSE ",302,210
"20635","UK","GB","GBR",826,"United Kingdom",24193,60244834,150,154,-1.6,53," BARNABAS ",302,6
"82","IN","IN","IND",356,"India",297319,1134403141,142,34,78.5,21," BARTHOLOMEW ",8,6
"41","AM","AM","ARM",51,"Armenia",2820,3017661,142,145,44.563,40.534," BARTHOLOMEW ",7,6
"20636","UK","GB","GBR",826,"United Kingdom",24193,60244834,150,154,-1.6,53," BARTHOLOMEW ",302,6
"1543","NO","NO","NOR",578,"Norway",30625,4638836,150,154,8.74,61.152," BARTHOLOMEW OF FARNE ",18,89
"20637","UK","GB","GBR",826,"United Kingdom",24193,60244834,150,154,-1.6,53," BARTHOLOMEW OF FARNE ",302,89
"49","EG","EG","EGY",818,"Egypt",99545,72849793,2,15,29.872,26.494," BASIL THE GREAT ",26,348
"852","IT","IT","ITA",380,"Italy",29411,5864636,150,39,12.8,42.7," BASIL THE GREAT ",87,348
"647","FR","FR","FRA",250,"France",55010,60990544,150,155,2.55,46.565," BATHILD ",134,481
"20638","UK","GB","GBR",826,"United Kingdom",24193,60244834,150,154,-1.6,53," BATHILD ",302,481
"648","FR","FR","FRA",250,"France",55010,60990544,150,155,2.55,46.565," BAVO ",134,462
"649","FR","FR","FRA",250,"France",55010,60990544,150,155,2.55,46.565," BAYLON PASCHAL ",134,183
"6410","FR","FR","FRA",250,"France",55010,60990544,150,155,2.55,46.565," BEAN MO BIOC ",134,NA
"20639","UK","GB","GBR",826,"United Kingdom",24193,60244834,150,154,-1.6,53," BEDE THE VENERABLE ",302,524
"20640","UK","GB","GBR",826,"United Kingdom",24193,60244834,150,154,-1.6,53," BEGA ",302,402
"20641","UK","GB","GBR",826,"United Kingdom",24193,60244834,150,154,-1.6,53," BELLARMINE ROBERT ",302,203
"6411","FR","FR","FRA",250,"France",55010,60990544,150,155,2.55,46.565," BELLARMINE ROBERT ",134,203
"6412","FR","FR","FRA",250,"France",55010,60990544,150,155,2.55,46.565," BENEDICT ",134,402
"20642","UK","GB","GBR",826,"United Kingdom",24193,60244834,150,154,-1.6,53," BENEDICT BISCOP ",302,489
"20643","UK","GB","GBR",826,"United Kingdom",24193,60244834,150,154,-1.6,53," BENEDICT OF ANIANE ",302,568
"853","IT","IT","ITA",380,"Italy",29411,5864636,150,39,12.8,42.7," BENEDICT THE AFRICAN ",87,180
"1872","SP","ES","ESP",724,"Spain",49904,43397491,150,39,-3.649,40.227," BENEDICT THE AFRICAN ",70,180
"5012","EI","IE","IRL",372,"Ireland",6889,4143294,150,154,-8.152,53.177," BENIGNUS OF ARMAGH ",93,369
"5013","EI","IE","IRL",372,"Ireland",6889,4143294,150,154,-8.152,53.177," BENIGNUS OF DIJON ",93,308
"6413","FR","FR","FRA",250,"France",55010,60990544,150,155,2.55,46.565," BERNADETTE ",134,273
"20644","UK","GB","GBR",826,"United Kingdom",24193,60244834,150,154,-1.6,53," BERNARD ",302,70
"5014","EI","IE","IRL",372,"Ireland",6889,4143294,150,154,-8.152,53.177," BERNARD ",93,70
"854","IT","IT","ITA",380,"Italy",29411,5864636,150,39,12.8,42.7," BERNARDINO OF SIENA ",87,147
"20645","UK","GB","GBR",826,"United Kingdom",24193,60244834,150,154,-1.6,53," BERNARDINO OF SIENA ",302,147
"6414","FR","FR","FRA",250,"France",55010,60990544,150,155,2.55,46.565," BERNO OF CLUNY ",134,597
"855","IT","IT","ITA",380,"Italy",29411,5864636,150,39,12.8,42.7," BERNO OF CLUNY ",87,597
"20646","UK","GB","GBR",826,"United Kingdom",24193,60244834,150,154,-1.6,53," BERNO OF CLUNY ",302,597
"6415","FR","FR","FRA",250,"France",55010,60990544,150,155,2.55,46.565," BERTIN ",134,496
"856","IT","IT","ITA",380,"Italy",29411,5864636,150,39,12.8,42.7," BERTONI CASPAR",87,261
"20647","UK","GB","GBR",826,"United Kingdom",24193,60244834,150,154,-1.6,53," BETTELIN OF ILAM ",302,NA
"20648","UK","GB","GBR",826,"United Kingdom",24193,60244834,150,154,-1.6,53," BIRINUS ",302,459
"20649","UK","GB","GBR",826,"United Kingdom",24193,60244834,150,154,-1.6,53," BIRSTAN ",302,601
"42","AM","AM","ARM",51,"Armenia",2820,3017661,142,145,44.563,40.534," BLAISE ",7,NA
"5015","EI","IE","IRL",372,"Ireland",6889,4143294,150,154,-8.152,53.177," BLANE ",93,413
"857","IT","IT","ITA",380,"Italy",29411,5864636,150,39,12.8,42.7," BONAVENTURE ",87,115
"6416","FR","FR","FRA",250,"France",55010,60990544,150,155,2.55,46.565," BONAVENTURE ",134,115
"717","GM","DE","DEU",276,"Germany",34895,82652369,150,155,9.851,51.11," BONAVENTURE ",65,115
"20650","UK","GB","GBR",826,"United Kingdom",24193,60244834,150,154,-1.6,53," BONIFACE WINFRITH",302,538
"718","GM","DE","DEU",276,"Germany",34895,82652369,150,155,9.851,51.11," BONIFACE WINFRITH",65,538
"6417","FR","FR","FRA",250,"France",55010,60990544,150,155,2.55,46.565," BONIFACE WINFRITH",134,538
"1873","SP","ES","ESP",724,"Spain",49904,43397491,150,39,-3.649,40.227," BORGIA FRANCIS ",70,173
"1651","PO","PT","PRT",620,"Portugal",9150,10528226,150,39,-8.058,40.309," BORGIA FRANCIS ",15,173
"1631","PL","PL","POL",616,"Poland",30629,38195558,150,151,19.401,52.125," BORGIA FRANCIS ",17,173
"6418","FR","FR","FRA",250,"France",55010,60990544,150,155,2.55,46.565," BORGIA FRANCIS ",134,173
"858","IT","IT","ITA",380,"Italy",29411,5864636,150,39,12.8,42.7," BORROMEO CHARLES ",87,177
"1922","SZ","CH","CHE",756,"Switzerland",4000,7424389,150,155,7.908,46.861," BORROMEO CHARLES ",22,177
"859","IT","IT","ITA",380,"Italy",29411,5864636,150,39,12.8,42.7," BOSA ",87,500
"1923","SZ","CH","CHE",756,"Switzerland",4000,7424389,150,155,7.908,46.861," BOSA ",22,500
"20651","UK","GB","GBR",826,"United Kingdom",24193,60244834,150,154,-1.6,53," BOSTE JOHN",302,184
"20652","UK","GB","GBR",826,"United Kingdom",24193,60244834,150,154,-1.6,53," BOTVID ",302,50
"1902","SW","SE","SWE",752,"Sweden",41033,9038049,150,154,15.27,62.011," BOTVID ",26,50
"6419","FR","FR","FRA",250,"France",55010,60990544,150,155,2.55,46.565," BOURGEOYS MARGUERITE ",134,228
"6420","FR","FR","FRA",250,"France",55010,60990544,150,155,2.55,46.565," BRANNOC ",134,NA
"5016","EI","IE","IRL",372,"Ireland",6889,4143294,150,154,-8.152,53.177," BREAGE ",93,NA
"20653","UK","GB","GBR",826,"United Kingdom",24193,60244834,150,154,-1.6,53," BREGWINE ",302,541
"719","GM","DE","DEU",276,"Germany",34895,82652369,150,155,9.851,51.11," BREGWINE ",65,541
"5017","EI","IE","IRL",372,"Ireland",6889,4143294,150,154,-8.152,53.177," BRENDAN OF BIRR ",93,412
"5018","EI","IE","IRL",372,"Ireland",6889,4143294,150,154,-8.152,53.177," BRENDAN THE NAVIGATOR ",93,413
"20654","UK","GB","GBR",826,"United Kingdom",24193,60244834,150,154,-1.6,53," BRIANT ALEXANDER",302,175
"20655","UK","GB","GBR",826,"United Kingdom",24193,60244834,150,154,-1.6,53," BRIAVEL ",302,68
"8510","IT","IT","ITA",380,"Italy",29411,5864636,150,39,12.8,42.7," BRICE ",87,367
"20656","UK","GB","GBR",826,"United Kingdom",24193,60244834,150,154,-1.6,53," BRICE ",302,367
"1903","SW","SE","SWE",752,"Sweden",41033,9038049,150,154,15.27,62.011," BRIDGET OF SWEDEN ",26,135
"1544","NO","NO","NOR",578,"Norway",30625,4638836,150,154,8.74,61.152," BRIDGET OF SWEDEN ",18,135
"1874","SP","ES","ESP",724,"Spain",49904,43397491,150,39,-3.649,40.227," BRIDGET OF SWEDEN ",70,135
"8511","IT","IT","ITA",380,"Italy",29411,5864636,150,39,12.8,42.7," BRIDGET OF SWEDEN ",87,135
"52","EN","EE","EST",233,"Estonia",4239,1344312,150,154,25.793,58.674," BRIDGET OF SWEDEN ",1,135
"100","LG","LV","LVA",428,"Latvia",6205,2301793,150,154,25.641,56.858," BRIDGET OF SWEDEN ",2,135
"20657","UK","GB","GBR",826,"United Kingdom",24193,60244834,150,154,-1.6,53," BRIDGET OF SWEDEN ",302,135
"6421","FR","FR","FRA",250,"France",55010,60990544,150,155,2.55,46.565," BRIDGET OF SWEDEN ",134,135
"5019","EI","IE","IRL",372,"Ireland",6889,4143294,150,154,-8.152,53.177," BRIGID OF IRELAND BRIDE OF IRELAND ",93,388
"20658","UK","GB","GBR",826,"United Kingdom",24193,60244834,150,154,-1.6,53," BRIGID OF IRELAND BRIDE OF IRELAND ",302,388
"1652","PO","PT","PRT",620,"Portugal",9150,10528226,150,39,-8.058,40.309," BRIGID OF IRELAND BRIDE OF IRELAND ",15,388
"6422","FR","FR","FRA",250,"France",55010,60990544,150,155,2.55,46.565," BRIOC ",134,402
"491","EG","EG","EGY",818,"Egypt",99545,72849793,2,15,29.872,26.494," BRUNO ",26,51
"1381",NA,"PS","PSE",275,"Palestine",0,3762005,142,145,35.278,32.037," BRUNO ",16,51
"20659","UK","GB","GBR",826,"United Kingdom",24193,60244834,150,154,-1.6,53," BRUNO ",302,51
"5020","EI","IE","IRL",372,"Ireland",6889,4143294,150,154,-8.152,53.177," BRYCHAN ",93,NA
"5021","EI","IE","IRL",372,"Ireland",6889,4143294,150,154,-8.152,53.177," BUDOC ",93,402
"7110","GM","DE","DEU",276,"Germany",34895,82652369,150,155,9.851,51.11," BURCHARD ",65,538
"7111","GM","DE","DEU",276,"Germany",34895,82652369,150,155,9.851,51.11," BURYAN ",65,NA
"29","CH","CN","CHN",156,"China",932743,1312978855,142,30,106.514,33.42," CABRINI FRANCES XAVIER ",12,288
"8512","IT","IT","ITA",380,"Italy",29411,5864636,150,39,12.8,42.7," CABRINI FRANCES XAVIER ",87,288
"158","NU","NI","NIC",558,"Nicaragua",12140,5462539,19,13,-85.034,12.84," CABRINI FRANCES XAVIER ",1,288
"8513","IT","IT","ITA",380,"Italy",29411,5864636,150,39,12.8,42.7," CAESARIUS OF ARLES ",87,397
"8514","IT","IT","ITA",380,"Italy",29411,5864636,150,39,12.8,42.7," CAFASSO JOSEPH",87,264
"8515","IT","IT","ITA",380,"Italy",29411,5864636,150,39,12.8,42.7," CALASANZ JOSEPH ",87,214
"1875","SP","ES","ESP",724,"Spain",49904,43397491,150,39,-3.649,40.227," CALASANZ JOSEPH ",70,214
"801","HU","HU","HUN",348,"Hungary",9210,10086387,150,151,19.134,47.07," CAMILLUS OF LELLIS ",25,197
"79","HR","HR","HRV",191,"Croatia",5592,455149,150,39,16.693,45.723," CAMILLUS OF LELLIS ",1,197
"20660","UK","GB","GBR",826,"United Kingdom",24193,60244834,150,154,-1.6,53," CAMPION EDMUND ",302,563
"5022","EI","IE","IRL",372,"Ireland",6889,4143294,150,154,-8.152,53.177," CAMPION EDMUND ",93,563
"5023","EI","IE","IRL",372,"Ireland",6889,4143294,150,154,-8.152,53.177," CANICE ",93,423
"561","AU","AT","AUT",40,"Austria",8245,8291979,150,155,14.912,47.683," CANISIUS PETER ",24,186
"20661","UK","GB","GBR",826,"United Kingdom",24193,60244834,150,154,-1.6,53," CANUTE ",302,44
"442","DA","DK","DNK",208,"Denmark",4243,5416945,150,154,9.264,56.058," CANUTE ",16,44
"1545","NO","NO","NOR",578,"Norway",30625,4638836,150,154,8.74,61.152," CANUTE ",18,44
"443","DA","DK","DNK",208,"Denmark",4243,5416945,150,154,9.264,56.058," CANUTE LAVARD ",16,61
"562","AU","AT","AUT",40,"Austria",8245,8291979,150,155,14.912,47.683," CAPITANIO BARTOLOMAEA ",24,253
"8516","IT","IT","ITA",380,"Italy",29411,5864636,150,39,12.8,42.7," CARACCIOLO FRANCIS ",87,192
"1876","SP","ES","ESP",724,"Spain",49904,43397491,150,39,-3.649,40.227," CARACCIOLO FRANCIS ",70,192
"1632","PL","PL","POL",616,"Poland",30629,38195558,150,151,19.401,52.125," CASIMIR ",17,156
"102","LH","LT","LTU",440,"Lithuania",6268,3425077,150,154,23.897,55.336," CASIMIR ",5,156
"170","RO","RO","ROU",642,"Romania",22987,21627557,150,151,24.969,45.844," CASSIAN JOHN ",1,364
"492","EG","EG","EGY",818,"Egypt",99545,72849793,2,15,29.872,26.494," CASSIAN JOHN ",26,364
"8517","IT","IT","ITA",380,"Italy",29411,5864636,150,39,12.8,42.7," CASSIAN JOHN ",87,364
"8518","IT","IT","ITA",380,"Italy",29411,5864636,150,39,12.8,42.7," CATALD ",87,559
"20662","UK","GB","GBR",826,"United Kingdom",24193,60244834,150,154,-1.6,53," CATHERINE OF ALEXANDRIA ",302,342
"6423","FR","FR","FRA",250,"France",55010,60990544,150,155,2.55,46.565," CATHERINE OF ALEXANDRIA ",134,342
"7112","GM","DE","DEU",276,"Germany",34895,82652369,150,155,9.851,51.11," CATHERINE OF ALEXANDRIA ",65,342
"1904","SW","SE","SWE",752,"Sweden",41033,9038049,150,154,15.27,62.011," CATHERINE OF SWEDEN ",26,138
"8519","IT","IT","ITA",380,"Italy",29411,5864636,150,39,12.8,42.7,"VIGRI OF BOLOGNA",87,443
"1877","SP","ES","ESP",724,"Spain",49904,43397491,150,39,-3.649,40.227," CECILIUS ",70,NA
"6424","FR","FR","FRA",250,"France",55010,60990544,150,155,2.55,46.565," CECILIUS ",134,NA
"35","CD","TD","TCD",148,"Chad",125920,10145609,2,17,18.665,15.361," CEDD ",3,471
"5024","EI","IE","IRL",372,"Ireland",6889,4143294,150,154,-8.152,53.177," CELSUS ",93,59
"5025","EI","IE","IRL",372,"Ireland",6889,4143294,150,154,-8.152,53.177," CHAD CEADDA ",93,475
"20663","UK","GB","GBR",826,"United Kingdom",24193,60244834,150,154,-1.6,53," CHAD CEADDA ",302,475
"351","CD","TD","TCD",148,"Chad",125920,10145609,2,17,18.665,15.361," CHAD CEADDA ",3,475
"6425","FR","FR","FRA",250,"France",55010,60990544,150,155,2.55,46.565," CHANEL PETER ",134,256
"60","FJ","FJ","FJI",242,"Fiji",1827,828046,9,54,177.974,-17.819," CHANEL PETER ",1,256
"159","NZ","NZ","NZL",554,"New Zealand",26799,4097112,9,53,172.235,-42.634," CHANEL PETER ",1,256
"8","AS","AU","AUS",36,"Australia",768230,20310208,9,53,136.189,-24.973," CHANEL PETER ",4,256
"563","AU","AT","AUT",40,"Austria",8245,8291979,150,155,14.912,47.683," CHANTAL JANE FRANCES DE ",24,210
"564","AU","AT","AUT",40,"Austria",8245,8291979,150,155,14.912,47.683," CHATTAN CATHAN OF KINGARTH ",24,402
"5026","EI","IE","IRL",372,"Ireland",6889,4143294,150,154,-8.152,53.177," CHRISTIAN ",93,85
"7113","GM","DE","DEU",276,"Germany",34895,82652369,150,155,9.851,51.11," CHRISTOPHER ",65,308
"8520","IT","IT","ITA",380,"Italy",29411,5864636,150,39,12.8,42.7," CHRISTOPHER ",87,308
"8521","IT","IT","ITA",380,"Italy",29411,5864636,150,39,12.8,42.7," CHRODEGANG OF METZ ",87,542
"7114","GM","DE","DEU",276,"Germany",34895,82652369,150,155,9.851,51.11," CHRODEGANG OF METZ ",65,542
"20664","UK","GB","GBR",826,"United Kingdom",24193,60244834,150,154,-1.6,53," CHRODEGANG OF METZ ",302,542
"5027","EI","IE","IRL",372,"Ireland",6889,4143294,150,154,-8.152,53.177," CIARAN OF CLONMACNOISE ",93,400
"1878","SP","ES","ESP",724,"Spain",49904,43397491,150,39,-3.649,40.227," CLARE ",70,107
"6426","FR","FR","FRA",250,"France",55010,60990544,150,155,2.55,46.565," CLARE ",134,107
"20665","UK","GB","GBR",826,"United Kingdom",24193,60244834,150,154,-1.6,53," CLARE ",302,107
"1879","SP","ES","ESP",724,"Spain",49904,43397491,150,39,-3.649,40.227," CLARET ANTONY ",70,271
"40","CU","CU","CUB",192,"Cuba",10982,11259905,19,29,-77.781,21.297," CLARET ANTONY ",2,271
"37","CO","CO","COL",170,"Colombia",103870,4494579,19,5,-73.076,3.9," CLAVER PETER ",2,217
"5","AO","AO","AGO",24,"Angola",124670,16095214,2,17,17.544,-12.296," CLAVER PETER ",1,217
"2081","US","US","USA",840,"United States",915896,299846449,19,21,-98.606,39.622," CLAVER PETER ",4,217
"20666","UK","GB","GBR",826,"United Kingdom",24193,60244834,150,154,-1.6,53," CLEMENT ",302,8
"20667","UK","GB","GBR",826,"United Kingdom",24193,60244834,150,154,-1.6,53," CLETHER ",302,402
"20668","UK","GB","GBR",826,"United Kingdom",24193,60244834,150,154,-1.6,53," CLITHEROW MARGARET ",302,178
"6427","FR","FR","FRA",250,"France",55010,60990544,150,155,2.55,46.565," COLETTE ",134,148
"6428","FR","FR","FRA",250,"France",55010,60990544,150,155,2.55,46.565," COLLEN ",134,NA
"6429","FR","FR","FRA",250,"France",55010,60990544,150,155,2.55,46.565," COLMAN ",134,NA
"6430","FR","FR","FRA",250,"France",55010,60990544,150,155,2.55,46.565," COLMAN OF CLOYNE ",134,427
"5028","EI","IE","IRL",372,"Ireland",6889,4143294,150,154,-8.152,53.177," COLMAN OF DROMORE ",93,NA
"20669","UK","GB","GBR",826,"United Kingdom",24193,60244834,150,154,-1.6,53," COLMAN OF LINDISFARNE ",302,477
"5029","EI","IE","IRL",372,"Ireland",6889,4143294,150,154,-8.152,53.177," COLMAN OF LINDISFARNE ",93,477
"6431","FR","FR","FRA",250,"France",55010,60990544,150,155,2.55,46.565," COLOMBIERE ",134,224
"6432","FR","FR","FRA",250,"France",55010,60990544,150,155,2.55,46.565," COLUMBA ",134,NA
"5030","EI","IE","IRL",372,"Ireland",6889,4143294,150,154,-8.152,53.177,"CILLE OF IONA ",93,608
"5031","EI","IE","IRL",372,"Ireland",6889,4143294,150,154,-8.152,53.177," COLUMBANUS ",93,433
"5032","EI","IE","IRL",372,"Ireland",6889,4143294,150,154,-8.152,53.177," COMGALL ",93,424
"6433","FR","FR","FRA",250,"France",55010,60990544,150,155,2.55,46.565," CONDEDUS ",134,459
"8522","IT","IT","ITA",380,"Italy",29411,5864636,150,39,12.8,42.7," CONRAD CONFALONIERI OF PIACENZA ",87,132
"8523","IT","IT","ITA",380,"Italy",29411,5864636,150,39,12.8,42.7," CONRAN ",87,459
"5033","EI","IE","IRL",372,"Ireland",6889,4143294,150,154,-8.152,53.177," CONSTANTINE ",93,NA
"48","EC","EC","ECU",218,"Ecuador",27684,13060993,19,5,-78.497,-1.385," CORDERO MIGUEL ",2,286
"1281","BE","BE","BEL",56,"Belgium",0,10398049,150,155,4.664,50.643," CORDERO MIGUEL ",8,286
"481","EC","EC","ECU",218,"Ecuador",27684,13060993,19,5,-78.497,-1.385," CORENTIN ",2,NA
"1282","BE","BE","BEL",56,"Belgium",0,10398049,150,155,4.664,50.643," CORENTIN ",8,NA
"6434","FR","FR","FRA",250,"France",55010,60990544,150,155,2.55,46.565," COUDERC TERESA ",134,276
"8524","IT","IT","ITA",380,"Italy",29411,5864636,150,39,12.8,42.7," COUDERC TERESA ",87,276
"5034","EI","IE","IRL",372,"Ireland",6889,4143294,150,154,-8.152,53.177," CREDAN ",93,NA
"5035","EI","IE","IRL",372,"Ireland",6889,4143294,150,154,-8.152,53.177," CREDAN ",93,574
"20670","UK","GB","GBR",826,"United Kingdom",24193,60244834,150,154,-1.6,53," CUTHBERT ",302,487
"20671","UK","GB","GBR",826,"United Kingdom",24193,60244834,150,154,-1.6,53," CUTHBURGA ",302,517
"20672","UK","GB","GBR",826,"United Kingdom",24193,60244834,150,154,-1.6,53," CUTHFLEDA ",302,28
"5036","EI","IE","IRL",372,"Ireland",6889,4143294,150,154,-8.152,53.177," CYBI CUBY ",93,402
"5037","EI","IE","IRL",372,"Ireland",6889,4143294,150,154,-8.152,53.177," CYNIBURG KINEBURGA ",93,NA
"6435","FR","FR","FRA",250,"France",55010,60990544,150,155,2.55,46.565," CYRICUS AND JULITTA ",134,327
"20673","UK","GB","GBR",826,"United Kingdom",24193,60244834,150,154,-1.6,53," CYRICUS AND JULITTA ",302,327
"7115","GM","DE","DEU",276,"Germany",34895,82652369,150,155,9.851,51.11," CYRIL AND METHODIUS ",65,588
"1382",NA,"PS","PSE",275,"Palestine",0,3762005,142,145,35.278,32.037," DANIEL THE STYLITE ",16,379
"20674","UK","GB","GBR",826,"United Kingdom",24193,60244834,150,154,-1.6,53," DAVID OF SCOTLAND ",302,70
"1546","NO","NO","NOR",578,"Norway",30625,4638836,150,154,8.74,61.152," DAVID OF SCOTLAND ",18,70
"444","DA","DK","DNK",208,"Denmark",4243,5416945,150,154,9.264,56.058," DAVID OF SCOTLAND ",16,70
"7116","GM","DE","DEU",276,"Germany",34895,82652369,150,155,9.851,51.11," DAVID OF SCOTLAND ",65,70
"1905","SW","SE","SWE",752,"Sweden",41033,9038049,150,154,15.27,62.011," DAVID OF SWEDEN AND MUNKTHORP ",26,40
"5038","EI","IE","IRL",372,"Ireland",6889,4143294,150,154,-8.152,53.177," DAVID DEWI OF WALES ",93,424
"493","EG","EG","EGY",818,"Egypt",99545,72849793,2,15,29.872,26.494," DAVID DEWI OF WALES ",26,424
"821","IN","IN","IND",356,"India",297319,1134403141,142,34,78.5,21," DE BRITTO JOHN ",8,226
"551","ET","ET","ETH",231,"Ethiopia",100000,78985857,2,14,39.616,8.626," DE JACOBIS JUSTIN",7,264
"552","ET","ET","ETH",231,"Ethiopia",100000,78985857,2,14,39.616,8.626," DECLAN ",7,388
"8525","IT","IT","ITA",380,"Italy",29411,5864636,150,39,12.8,42.7," DELPHINE OF PROVENCE ",87,133
"8526","IT","IT","ITA",380,"Italy",29411,5864636,150,39,12.8,42.7," DENYS ",87,158
"6436","FR","FR","FRA",250,"France",55010,60990544,150,155,2.55,46.565," DENYS ",134,158
"20675","UK","GB","GBR",826,"United Kingdom",24193,60244834,150,154,-1.6,53," DENYS ",302,158
"7117","GM","DE","DEU",276,"Germany",34895,82652369,150,155,9.851,51.11," DISIBOD ",65,459
"494","EG","EG","EGY",818,"Egypt",99545,72849793,2,15,29.872,26.494," DISMAS THE GOOD THIEF ",26,324
"445","DA","DK","DNK",208,"Denmark",4243,5416945,150,154,9.264,56.058," DOMINIC ",16,96
"7118","GM","DE","DEU",276,"Germany",34895,82652369,150,155,9.851,51.11," DOMINIC ",65,96
"6437","FR","FR","FRA",250,"France",55010,60990544,150,155,2.55,46.565," DOMINIC ",134,96
"8527","IT","IT","ITA",380,"Italy",29411,5864636,150,39,12.8,42.7," DOMINIC ",87,96
"18710","SP","ES","ESP",724,"Spain",49904,43397491,150,39,-3.649,40.227," DOMINIC ",70,96
"802","HU","HU","HUN",348,"Hungary",9210,10086387,150,151,19.134,47.07," DOMINIC ",25,96
"18711","SP","ES","ESP",724,"Spain",49904,43397491,150,39,-3.649,40.227," DOMINIC OF SILOS ",70,520
"5039","EI","IE","IRL",372,"Ireland",6889,4143294,150,154,-8.152,53.177," DONATUS DONAT DINO ",93,585
"8528","IT","IT","ITA",380,"Italy",29411,5864636,150,39,12.8,42.7," DOROTHY DOROTHEA ",87,327
"7119","GM","DE","DEU",276,"Germany",34895,82652369,150,155,9.851,51.11," DOROTHY DOROTHEA ",65,327
"20676","UK","GB","GBR",826,"United Kingdom",24193,60244834,150,154,-1.6,53," DOROTHY DOROTHEA ",302,327
"8529","IT","IT","ITA",380,"Italy",29411,5864636,150,39,12.8,42.7," DREXEL KATHARINE ",87,297
"20677","UK","GB","GBR",826,"United Kingdom",24193,60244834,150,154,-1.6,53," DRITHELM ",302,498
"20678","UK","GB","GBR",826,"United Kingdom",24193,60244834,150,154,-1.6,53," DROSTAN ",302,459
"20679","UK","GB","GBR",826,"United Kingdom",24193,60244834,150,154,-1.6,53," DUNSTAN ",302,614
"5040","EI","IE","IRL",372,"Ireland",6889,4143294,150,154,-8.152,53.177," DUTHAC DOTHOW DUBTACH",93,31
"6438","FR","FR","FRA",250,"France",55010,60990544,150,155,2.55,46.565," EANSWYTH ",134,451
"5041","EI","IE","IRL",372,"Ireland",6889,4143294,150,154,-8.152,53.177," EDFRITH ",93,515
"8530","IT","IT","ITA",380,"Italy",29411,5864636,150,39,12.8,42.7," EDFRITH ",87,515
"20680","UK","GB","GBR",826,"United Kingdom",24193,60244834,150,154,-1.6,53," EDGAR ",302,610
"20681","UK","GB","GBR",826,"United Kingdom",24193,60244834,150,154,-1.6,53," EDMUND ",302,582
"6439","FR","FR","FRA",250,"France",55010,60990544,150,155,2.55,46.565," EDMUND ",134,582
"20682","UK","GB","GBR",826,"United Kingdom",24193,60244834,150,154,-1.6,53," EDMUND EDME OF ABINGDON ",302,101
"6440","FR","FR","FRA",250,"France",55010,60990544,150,155,2.55,46.565," EDMUND EDME OF ABINGDON ",134,101
"20683","UK","GB","GBR",826,"United Kingdom",24193,60244834,150,154,-1.6,53," EDWARD THE CONFESSOR ",302,32
"6441","FR","FR","FRA",250,"France",55010,60990544,150,155,2.55,46.565," EDWARD THE CONFESSOR ",134,32
"822","IN","IN","IND",356,"India",297319,1134403141,142,34,78.5,21," EDWARD THE CONFESSOR ",8,32
"20684","UK","GB","GBR",826,"United Kingdom",24193,60244834,150,154,-1.6,53," EDWARD THE MARTYR ",302,554
"5042","EI","IE","IRL",372,"Ireland",6889,4143294,150,154,-8.152,53.177," EGBERT ",93,519
"20685","UK","GB","GBR",826,"United Kingdom",24193,60244834,150,154,-1.6,53," EGBERT ",302,519
"20686","UK","GB","GBR",826,"United Kingdom",24193,60244834,150,154,-1.6,53," EGWIN ",302,511
"20687","UK","GB","GBR",826,"United Kingdom",24193,60244834,150,154,-1.6,53," ELFLEDA ",302,508
"803","HU","HU","HUN",348,"Hungary",9210,10086387,150,151,19.134,47.07," ELIZABETH OF HUNGARY OF THURINGIA",25,99
"804","HU","HU","HUN",348,"Hungary",9210,10086387,150,151,19.134,47.07," ELIZABETH OF PORTUGAL ",25,129
"1653","PO","PT","PRT",620,"Portugal",9150,10528226,150,39,-8.058,40.309," ELIZABETH OF PORTUGAL ",15,129
"20688","UK","GB","GBR",826,"United Kingdom",24193,60244834,150,154,-1.6,53," ELOI ",302,467
"20689","UK","GB","GBR",826,"United Kingdom",24193,60244834,150,154,-1.6,53," ELPHIN ",302,NA
"5043","EI","IE","IRL",372,"Ireland",6889,4143294,150,154,-8.152,53.177," ELWIN ",93,491
"5044","EI","IE","IRL",372,"Ireland",6889,4143294,150,154,-8.152,53.177," ENDA EANNA ",93,390
"20690","UK","GB","GBR",826,"United Kingdom",24193,60244834,150,154,-1.6,53," ENDA EANNA ",302,390
"5045","EI","IE","IRL",372,"Ireland",6889,4143294,150,154,-8.152,53.177," ENDELLION ENDELIENT ",93,402
"20691","UK","GB","GBR",826,"United Kingdom",24193,60244834,150,154,-1.6,53," ENDELLION ENDELIENT ",302,402
"1906","SW","SE","SWE",752,"Sweden",41033,9038049,150,154,15.27,62.011," ERIC OF SWEDEN ",26,76
"59","FI","FI","FIN",246,"Finland",30459,5246004,150,154,26.272,64.504," ERIC OF SWEDEN ",7,76
"20692","UK","GB","GBR",826,"United Kingdom",24193,60244834,150,154,-1.6,53," ERIC OF SWEDEN ",302,76
"1907","SW","SE","SWE",752,"Sweden",41033,9038049,150,154,15.27,62.011," ERKENGOTA ",26,467
"591","FI","FI","FIN",246,"Finland",30459,5246004,150,154,26.272,64.504," ERKENGOTA ",7,467
"20693","UK","GB","GBR",826,"United Kingdom",24193,60244834,150,154,-1.6,53," ERKENGOTA ",302,467
"20694","UK","GB","GBR",826,"United Kingdom",24193,60244834,150,154,-1.6,53," ERNIN ",302,402
"18712","SP","ES","ESP",724,"Spain",49904,43397491,150,39,-3.649,40.227," ESCRIVA DE BALAGUER ",70,299
"1908","SW","SE","SWE",752,"Sweden",41033,9038049,150,154,15.27,62.011," ESKIL ",26,40
"20695","UK","GB","GBR",826,"United Kingdom",24193,60244834,150,154,-1.6,53," ETHBIN EGBIN ",302,402
"5046","EI","IE","IRL",372,"Ireland",6889,4143294,150,154,-8.152,53.177," ETHBIN EGBIN ",93,402
"6442","FR","FR","FRA",250,"France",55010,60990544,150,155,2.55,46.565," ETHBIN EGBIN ",134,402
"20696","UK","GB","GBR",826,"United Kingdom",24193,60244834,150,154,-1.6,53," ETHELBERT OF KENT ",302,434
"20697","UK","GB","GBR",826,"United Kingdom",24193,60244834,150,154,-1.6,53," ETHELBERT ",302,557
"20698","UK","GB","GBR",826,"United Kingdom",24193,60244834,150,154,-1.6,53," ETHELDREDA ",302,480
"20699","UK","GB","GBR",826,"United Kingdom",24193,60244834,150,154,-1.6,53," ETHELDRITHA ",302,572
"206100","UK","GB","GBR",826,"United Kingdom",24193,60244834,150,154,-1.6,53," ETHELFLEDA ",302,606
"206101","UK","GB","GBR",826,"United Kingdom",24193,60244834,150,154,-1.6,53," ETHELWOLD ",302,613
"6443","FR","FR","FRA",250,"France",55010,60990544,150,155,2.55,46.565," ETHELWOLD ",134,613
"5047","EI","IE","IRL",372,"Ireland",6889,4143294,150,154,-8.152,53.177," ETHERNAN ",93,574
"6444","FR","FR","FRA",250,"France",55010,60990544,150,155,2.55,46.565," EUDES JOHN ",134,222
"18713","SP","ES","ESP",724,"Spain",49904,43397491,150,39,-3.649,40.227," EUPHRASIUS ",70,6
"1383",NA,"PS","PSE",275,"Palestine",0,3762005,142,145,35.278,32.037," EUSEBIUS OF VERCELLI ",16,346
"495","EG","EG","EGY",818,"Egypt",99545,72849793,2,15,29.872,26.494," EUSEBIUS OF VERCELLI ",26,346
"206102","UK","GB","GBR",826,"United Kingdom",24193,60244834,150,154,-1.6,53," EUSTACE ",302,NA
"1909","SW","SE","SWE",752,"Sweden",41033,9038049,150,154,15.27,62.011," EUSTOCHIUM CALAFATO ",26,152
"206103","UK","GB","GBR",826,"United Kingdom",24193,60244834,150,154,-1.6,53," EVANS PHILIP ",302,221
"206104","UK","GB","GBR",826,"United Kingdom",24193,60244834,150,154,-1.6,53," EVERILD ",302,498
"6445","FR","FR","FRA",250,"France",55010,60990544,150,155,2.55,46.565," EYMARD PETER JULIAN ",134,270
"206105","UK","GB","GBR",826,"United Kingdom",24193,60244834,150,154,-1.6,53," FABIOLA ",302,355
"6446","FR","FR","FRA",250,"France",55010,60990544,150,155,2.55,46.565," FAITH ",134,308
"8531","IT","IT","ITA",380,"Italy",29411,5864636,150,39,12.8,42.7," FAITH ",87,308
"18714","SP","ES","ESP",724,"Spain",49904,43397491,150,39,-3.649,40.227," FAITH ",70,308
"6447","FR","FR","FRA",250,"France",55010,60990544,150,155,2.55,46.565," FARA ",134,464
"8532","IT","IT","ITA",380,"Italy",29411,5864636,150,39,12.8,42.7," FARA ",87,464
"18715","SP","ES","ESP",724,"Spain",49904,43397491,150,39,-3.649,40.227," FARA ",70,464
"6448","FR","FR","FRA",250,"France",55010,60990544,150,155,2.55,46.565," FAUSTUS OF RIEZ ",134,589
"8533","IT","IT","ITA",380,"Italy",29411,5864636,150,39,12.8,42.7," FAUSTUS OF RIEZ ",87,589
"18716","SP","ES","ESP",724,"Spain",49904,43397491,150,39,-3.649,40.227," FAUSTUS OF RIEZ ",70,589
"206106","UK","GB","GBR",826,"United Kingdom",24193,60244834,150,154,-1.6,53," FELIX OF DUNWICH ",302,455
"18717","SP","ES","ESP",724,"Spain",49904,43397491,150,39,-3.649,40.227," FERDINAND III ",70,106
"6449","FR","FR","FRA",250,"France",55010,60990544,150,155,2.55,46.565," FIACRE ",134,474
"5048","EI","IE","IRL",372,"Ireland",6889,4143294,150,154,-8.152,53.177," FIACRE ",93,474
"565","AU","AT","AUT",40,"Austria",8245,8291979,150,155,14.912,47.683," FIACRE ",24,474
"1924","SZ","CH","CHE",756,"Switzerland",4000,7424389,150,155,7.908,46.861," FIDELIS OF SIGMARINGEN ",22,204
"5049","EI","IE","IRL",372,"Ireland",6889,4143294,150,154,-8.152,53.177," FINNIAN ",93,401
"5050","EI","IE","IRL",372,"Ireland",6889,4143294,150,154,-8.152,53.177," FINNIAN OF MOVILLE ",93,416
"5051","EI","IE","IRL",372,"Ireland",6889,4143294,150,154,-8.152,53.177," FINTAN OF CLONENAGH ",93,425
"5052","EI","IE","IRL",372,"Ireland",6889,4143294,150,154,-8.152,53.177," FINTAN MUNNU MUNDUS ",93,447
"5053","EI","IE","IRL",372,"Ireland",6889,4143294,150,154,-8.152,53.177," FIRMIN ",93,342
"5054","EI","IE","IRL",372,"Ireland",6889,4143294,150,154,-8.152,53.177," FLANNAN ",93,459
"206107","UK","GB","GBR",826,"United Kingdom",24193,60244834,150,154,-1.6,53," FORTY MARTYRS OF ENGLAND AND WALES ",302,NA
"201","TU","TR","TUR",792,"Turkey",76963,72969723,142,145,35.179,39.061," FORTY MARTYRS OF SEBASTE ",2,333
"206108","UK","GB","GBR",826,"United Kingdom",24193,60244834,150,154,-1.6,53," FOUR CROWNED MARTYRS QUATTUOR CORONATI ",302,360
"7120","GM","DE","DEU",276,"Germany",34895,82652369,150,155,9.851,51.11," FOURTEEN HOLY HELPERS FOURTEEN AUXILIARY SAINTS ",65,NA
"805","HU","HU","HUN",348,"Hungary",9210,10086387,150,151,19.134,47.07," FOURTEEN HOLY HELPERS FOURTEEN AUXILIARY SAINTS ",25,NA
"19010","SW","SE","SWE",752,"Sweden",41033,9038049,150,154,15.27,62.011," FOURTEEN HOLY HELPERS FOURTEEN AUXILIARY SAINTS ",26,NA
"6450","FR","FR","FRA",250,"France",55010,60990544,150,155,2.55,46.565," FOURTEEN HOLY HELPERS FOURTEEN AUXILIARY SAINTS ",134,NA
"8534","IT","IT","ITA",380,"Italy",29411,5864636,150,39,12.8,42.7," FOURTEEN HOLY HELPERS FOURTEEN AUXILIARY SAINTS ",87,NA
"6451","FR","FR","FRA",250,"France",55010,60990544,150,155,2.55,46.565," FRANCIS OF ASSISI ",134,98
"1131","MO","MA","MAR",504,"Morocco",44630,30494991,2,15,-5.758,32.706," FRANCIS OF ASSISI ",4,98
"18718","SP","ES","ESP",724,"Spain",49904,43397491,150,39,-3.649,40.227," FRANCIS OF ASSISI ",70,98
"8535","IT","IT","ITA",380,"Italy",29411,5864636,150,39,12.8,42.7," FRANCIS OF ASSISI ",87,98
"206109","UK","GB","GBR",826,"United Kingdom",24193,60244834,150,154,-1.6,53," FRANCIS OF ASSISI ",302,98
"6452","FR","FR","FRA",250,"France",55010,60990544,150,155,2.55,46.565," FRANCIS OF LUCERA ",134,236
"1132","MO","MA","MAR",504,"Morocco",44630,30494991,2,15,-5.758,32.706," FRANCIS OF LUCERA ",4,236
"18719","SP","ES","ESP",724,"Spain",49904,43397491,150,39,-3.649,40.227," FRANCIS OF LUCERA ",70,236
"8536","IT","IT","ITA",380,"Italy",29411,5864636,150,39,12.8,42.7," FRANCIS OF LUCERA ",87,236
"206110","UK","GB","GBR",826,"United Kingdom",24193,60244834,150,154,-1.6,53," FRANCIS OF LUCERA ",302,236
"6453","FR","FR","FRA",250,"France",55010,60990544,150,155,2.55,46.565," FRANCIS OF PAOLA ",134,159
"18720","SP","ES","ESP",724,"Spain",49904,43397491,150,39,-3.649,40.227," FRANCIS OF PAOLA ",70,159
"8537","IT","IT","ITA",380,"Italy",29411,5864636,150,39,12.8,42.7," FRANCIS OF PAOLA ",87,159
"119","MX","MX","MEX",484,"Mexico",190869,104266392,19,13,-102.535,23.951," FRANCIS OF PAOLA ",5,159
"8538","IT","IT","ITA",380,"Italy",29411,5864636,150,39,12.8,42.7," FRASSINETTI PAULA ",87,275
"1654","PO","PT","PRT",620,"Portugal",9150,10528226,150,39,-8.058,40.309," FRASSINETTI PAULA ",15,275
"202","BR","BR","BRA",76,"Brazil",845942,186830759,19,5,-53.089,-10.772," FRASSINETTI PAULA ",5,275
"566","AU","AT","AUT",40,"Austria",8245,8291979,150,155,14.912,47.683," FRIDOLIN ",24,402
"7121","GM","DE","DEU",276,"Germany",34895,82652369,150,155,9.851,51.11," FRIDOLIN ",65,402
"1925","SZ","CH","CHE",756,"Switzerland",4000,7424389,150,155,7.908,46.861," FRIDOLIN ",22,402
"6454","FR","FR","FRA",250,"France",55010,60990544,150,155,2.55,46.565," FRIDOLIN ",134,402
"567","AU","AT","AUT",40,"Austria",8245,8291979,150,155,14.912,47.683," FRITHEBERT ",24,542
"7122","GM","DE","DEU",276,"Germany",34895,82652369,150,155,9.851,51.11," FRITHEBERT ",65,542
"1926","SZ","CH","CHE",756,"Switzerland",4000,7424389,150,155,7.908,46.861," FRITHEBERT ",22,542
"6455","FR","FR","FRA",250,"France",55010,60990544,150,155,2.55,46.565," FRITHEBERT ",134,542
"568","AU","AT","AUT",40,"Austria",8245,8291979,150,155,14.912,47.683," FRITHESTAN ",24,599
"7123","GM","DE","DEU",276,"Germany",34895,82652369,150,155,9.851,51.11," FRITHESTAN ",65,599
"1927","SZ","CH","CHE",756,"Switzerland",4000,7424389,150,155,7.908,46.861," FRITHESTAN ",22,599
"6456","FR","FR","FRA",250,"France",55010,60990544,150,155,2.55,46.565," FRITHESTAN ",134,599
"569","AU","AT","AUT",40,"Austria",8245,8291979,150,155,14.912,47.683," FRONT OF PERIGUEUX ",24,342
"7124","GM","DE","DEU",276,"Germany",34895,82652369,150,155,9.851,51.11," FRONT OF PERIGUEUX ",65,342
"1928","SZ","CH","CHE",756,"Switzerland",4000,7424389,150,155,7.908,46.861," FRONT OF PERIGUEUX ",22,342
"6457","FR","FR","FRA",250,"France",55010,60990544,150,155,2.55,46.565," FRONT OF PERIGUEUX ",134,342
"5610","AU","AT","AUT",40,"Austria",8245,8291979,150,155,14.912,47.683," FRUCTUOSUS AND AUGURIUS AND EULOGIUS ",24,312
"7125","GM","DE","DEU",276,"Germany",34895,82652369,150,155,9.851,51.11," FRUCTUOSUS AND AUGURIUS AND EULOGIUS ",65,312
"1929","SZ","CH","CHE",756,"Switzerland",4000,7424389,150,155,7.908,46.861," FRUCTUOSUS AND AUGURIUS AND EULOGIUS ",22,312
"6458","FR","FR","FRA",250,"France",55010,60990544,150,155,2.55,46.565," FRUCTUOSUS AND AUGURIUS AND EULOGIUS ",134,312
"5055","EI","IE","IRL",372,"Ireland",6889,4143294,150,154,-8.152,53.177," FURSEY FURSA ",93,459
"6459","FR","FR","FRA",250,"France",55010,60990544,150,155,2.55,46.565," FURSEY FURSA ",134,459
"206111","UK","GB","GBR",826,"United Kingdom",24193,60244834,150,154,-1.6,53," GABRIEL ",302,NA
"19210","SZ","CH","CHE",756,"Switzerland",4000,7424389,150,155,7.908,46.861," GALL GALLECH GILIANUS ",22,444
"8539","IT","IT","ITA",380,"Italy",29411,5864636,150,39,12.8,42.7," GALL GALLECH GILIANUS ",87,444
"206112","UK","GB","GBR",826,"United Kingdom",24193,60244834,150,154,-1.6,53," GARNET THOMAS ",302,192
"18721","SP","ES","ESP",724,"Spain",49904,43397491,150,39,-3.649,40.227," GENESIUS OF ARLES ",70,326
"6460","FR","FR","FRA",250,"France",55010,60990544,150,155,2.55,46.565," GENEVIEVE GENOFEVA ",134,382
"206113","UK","GB","GBR",826,"United Kingdom",24193,60244834,150,154,-1.6,53," GENEVIEVE GENOFEVA ",302,382
"7126","GM","DE","DEU",276,"Germany",34895,82652369,150,155,9.851,51.11," GENEVIEVE GENOFEVA ",65,382
"206114","UK","GB","GBR",826,"United Kingdom",24193,60244834,150,154,-1.6,53," GENNINGS EDMUND",302,182
"6461","FR","FR","FRA",250,"France",55010,60990544,150,155,2.55,46.565," GENNINGS EDMUND",134,182
"206115","UK","GB","GBR",826,"United Kingdom",24193,60244834,150,154,-1.6,53," GENNYS ",302,NA
"6462","FR","FR","FRA",250,"France",55010,60990544,150,155,2.55,46.565," GENNYS ",134,NA
"206116","UK","GB","GBR",826,"United Kingdom",24193,60244834,150,154,-1.6,53," GEORGE ",302,326
"1655","PO","PT","PRT",620,"Portugal",9150,10528226,150,39,-8.058,40.309," GEORGE ",15,326
"7127","GM","DE","DEU",276,"Germany",34895,82652369,150,155,9.851,51.11," GEORGE ",65,326
"1742","RS","RU","RUS",643,"Russia",1638094,143953092,150,151,96.689,61.988," GEORGE ",13,326
"553","ET","ET","ETH",231,"Ethiopia",100000,78985857,2,14,39.616,8.626," GEORGE ",7,326
"67","GG","GE","GEO",268,"Georgia",6949,4473409,142,145,43.518,42.176," GEORGE THE HAGIORITE ",4,31
"671","GG","GE","GEO",268,"Georgia",6949,4473409,142,145,43.518,42.176," GERALD OF AURILLAC ",4,593
"672","GG","GE","GEO",268,"Georgia",6949,4473409,142,145,43.518,42.176," GERALD OF MAYO ",4,522
"806","HU","HU","HUN",348,"Hungary",9210,10086387,150,151,19.134,47.07," GERARD SAGREDO ",25,26
"206117","UK","GB","GBR",826,"United Kingdom",24193,60244834,150,154,-1.6,53," GERMANUS OF AUXERRE ",302,368
"5056","EI","IE","IRL",372,"Ireland",6889,4143294,150,154,-8.152,53.177," GERMANUS OF MAN ",93,375
"206118","UK","GB","GBR",826,"United Kingdom",24193,60244834,150,154,-1.6,53," GERMANUS OF MAN ",302,375
"1633","PL","PL","POL",616,"Poland",30629,38195558,150,151,19.401,52.125," GERTRUDE ",17,124
"206119","UK","GB","GBR",826,"United Kingdom",24193,60244834,150,154,-1.6,53," GERTRUDE OF NIVELLES ",302,466
"8540","IT","IT","ITA",380,"Italy",29411,5864636,150,39,12.8,42.7," GIANELLI ANTONIO MARIA ",87,258
"6463","FR","FR","FRA",250,"France",55010,60990544,150,155,2.55,46.565," GILBERT OF SEMPRINGHAM ",134,87
"5057","EI","IE","IRL",372,"Ireland",6889,4143294,150,154,-8.152,53.177," GILDAS ",93,411
"206120","UK","GB","GBR",826,"United Kingdom",24193,60244834,150,154,-1.6,53," GILDAS ",302,411
"206121","UK","GB","GBR",826,"United Kingdom",24193,60244834,150,154,-1.6,53," GILES ",302,504
"7128","GM","DE","DEU",276,"Germany",34895,82652369,150,155,9.851,51.11," GILES ",65,504
"823","IN","IN","IND",356,"India",297319,1134403141,142,34,78.5,21," GIROLAMO FRANCIS DI ",8,231
"88","JA","JP","JPN",392,"Japan",36450,127896740,142,30,139.068,36.491," GIROLAMO FRANCIS DI ",7,231
"824","IN","IN","IND",356,"India",297319,1134403141,142,34,78.5,21," GIULIANI VERONICA ",8,233
"881","JA","JP","JPN",392,"Japan",36450,127896740,142,30,139.068,36.491," GIULIANI VERONICA ",7,233
"81","IC","IS","ISL",352,"Iceland",10025,295732,150,154,-18.48,64.764," GIZUR OF ICELAND ",1,56
"5058","EI","IE","IRL",372,"Ireland",6889,4143294,150,154,-8.152,53.177," GOBNET ",93,369
"446","DA","DK","DNK",208,"Denmark",4243,5416945,150,154,9.264,56.058," GODRIC ",16,79
"206122","UK","GB","GBR",826,"United Kingdom",24193,60244834,150,154,-1.6,53," GODRIC ",302,79
"18722","SP","ES","ESP",724,"Spain",49904,43397491,150,39,-3.649,40.227," GONZAGA ALOYSIUS ",70,594
"5611","AU","AT","AUT",40,"Austria",8245,8291979,150,155,14.912,47.683," GONZAGA ALOYSIUS ",24,594
"8541","IT","IT","ITA",380,"Italy",29411,5864636,150,39,12.8,42.7," GONZAGA ALOYSIUS ",87,594
"18723","SP","ES","ESP",724,"Spain",49904,43397491,150,39,-3.649,40.227," GORKUM MARTYRS OF ",70,173
"8542","IT","IT","ITA",380,"Italy",29411,5864636,150,39,12.8,42.7," GREGORY THE GREAT ",87,426
"206123","UK","GB","GBR",826,"United Kingdom",24193,60244834,150,154,-1.6,53," GREGORY THE GREAT ",302,426
"7129","GM","DE","DEU",276,"Germany",34895,82652369,150,155,9.851,51.11," GREGORY THE GREAT ",65,426
"5059","EI","IE","IRL",372,"Ireland",6889,4143294,150,154,-8.152,53.177," GREGORY THE GREAT ",93,426
"206124","UK","GB","GBR",826,"United Kingdom",24193,60244834,150,154,-1.6,53," GREGORY II ",302,521
"8543","IT","IT","ITA",380,"Italy",29411,5864636,150,39,12.8,42.7," GREGORY III ",87,529
"6464","FR","FR","FRA",250,"France",55010,60990544,150,155,2.55,46.565," GREGORY VII ",134,43
"7130","GM","DE","DEU",276,"Germany",34895,82652369,150,155,9.851,51.11," GREGORY VII ",65,43
"43","AM","AM","ARM",51,"Armenia",2820,3017661,142,145,44.563,40.534," GREGORY OF NYSSA ",7,353
"6465","FR","FR","FRA",250,"France",55010,60990544,150,155,2.55,46.565," GREGORY OF TOURS ",134,421
"45","AM","AM","ARM",51,"Armenia",2820,3017661,142,145,44.563,40.534," GREGORY THE ENLIGHTENER ",7,335
"8544","IT","IT","ITA",380,"Italy",29411,5864636,150,39,12.8,42.7," GREGORY THE ENLIGHTENER ",87,335
"8545","IT","IT","ITA",380,"Italy",29411,5864636,150,39,12.8,42.7," GREGORY THE WONDERWORKER THAUMATURGUS ",87,315
"206125","UK","GB","GBR",826,"United Kingdom",24193,60244834,150,154,-1.6,53," GRIMBALD ",302,591
"206126","UK","GB","GBR",826,"United Kingdom",24193,60244834,150,154,-1.6,53," GUARDIAN ANGELS ",302,NA
"5612","AU","AT","AUT",40,"Austria",8245,8291979,150,155,14.912,47.683," GUARDIAN ANGELS ",24,NA
"18724","SP","ES","ESP",724,"Spain",49904,43397491,150,39,-3.649,40.227," GUARDIAN ANGELS ",70,NA
"1656","PO","PT","PRT",620,"Portugal",9150,10528226,150,39,-8.058,40.309," GUARDIAN ANGELS ",15,NA
"206127","UK","GB","GBR",826,"United Kingdom",24193,60244834,150,154,-1.6,53," GUDWAL ",302,402
"206128","UK","GB","GBR",826,"United Kingdom",24193,60244834,150,154,-1.6,53," GWYN RICHARD ",302,177
"1547","NO","NO","NOR",578,"Norway",30625,4638836,150,154,8.74,61.152," HALLVARD ",18,24
"1548","NO","NO","NOR",578,"Norway",30625,4638836,150,154,8.74,61.152," HARDULPH ",18,NA
"807","HU","HU","HUN",348,"Hungary",9210,10086387,150,151,19.134,47.07," HEDWIG ",25,142
"1634","PL","PL","POL",616,"Poland",30629,38195558,150,151,19.401,52.125," HEDWIG ",17,142
"5613","AU","AT","AUT",40,"Austria",8245,8291979,150,155,14.912,47.683," HEDWIG ",24,142
"1021","LH","LT","LTU",440,"Lithuania",6268,3425077,150,154,23.897,55.336," HEDWIG ",5,142
"206129","UK","GB","GBR",826,"United Kingdom",24193,60244834,150,154,-1.6,53," HELEN ",302,336
"19011","SW","SE","SWE",752,"Sweden",41033,9038049,150,154,15.27,62.011," HELEN OF SKOVDE ",26,76
"447","DA","DK","DNK",208,"Denmark",4243,5416945,150,154,9.264,56.058," HELEN OF SKOVDE ",16,76
"1283","BE","BE","BEL",56,"Belgium",0,10398049,150,155,4.664,50.643," HELIER ",8,402
"243","JE","JE","JEY",832,"Jersey",0,0,150,154,-2.129,49.219," HELIER ",1,402
"206130","UK","GB","GBR",826,"United Kingdom",24193,60244834,150,154,-1.6,53," HELIER ",302,402
"592","FI","FI","FIN",246,"Finland",30459,5246004,150,154,26.272,64.504," HEMMING OF ABO ",7,134
"19012","SW","SE","SWE",752,"Sweden",41033,9038049,150,154,15.27,62.011," HEMMING OF ABO ",26,134
"6466","FR","FR","FRA",250,"France",55010,60990544,150,155,2.55,46.565," HEMMING OF ABO ",134,134
"206131","UK","GB","GBR",826,"United Kingdom",24193,60244834,150,154,-1.6,53," HEMMING OF ABO ",302,134
"593","FI","FI","FIN",246,"Finland",30459,5246004,150,154,26.272,64.504," HENRY ",7,58
"19013","SW","SE","SWE",752,"Sweden",41033,9038049,150,154,15.27,62.011," HENRY ",26,58
"6467","FR","FR","FRA",250,"France",55010,60990544,150,155,2.55,46.565," HENRY ",134,58
"206132","UK","GB","GBR",826,"United Kingdom",24193,60244834,150,154,-1.6,53," HENRY ",302,58
"594","FI","FI","FIN",246,"Finland",30459,5246004,150,154,26.272,64.504," HENRY II ",7,18
"19014","SW","SE","SWE",752,"Sweden",41033,9038049,150,154,15.27,62.011," HENRY II ",26,18
"6468","FR","FR","FRA",250,"France",55010,60990544,150,155,2.55,46.565," HENRY II ",134,18
"206133","UK","GB","GBR",826,"United Kingdom",24193,60244834,150,154,-1.6,53," HENRY II ",302,18
"19015","SW","SE","SWE",752,"Sweden",41033,9038049,150,154,15.27,62.011," HENRY OF FINLAND ",26,72
"1549","NO","NO","NOR",578,"Norway",30625,4638836,150,154,8.74,61.152," HENRY OF FINLAND ",18,72
"595","FI","FI","FIN",246,"Finland",30459,5246004,150,154,26.272,64.504," HENRY OF FINLAND ",7,72
"8546","IT","IT","ITA",380,"Italy",29411,5864636,150,39,12.8,42.7," HERMES ",87,308
"5060","EI","IE","IRL",372,"Ireland",6889,4143294,150,154,-8.152,53.177," HEWALD THE BLACK AND HEWALD THE WHITE ",93,494
"1384",NA,"PS","PSE",275,"Palestine",0,3762005,142,145,35.278,32.037," HILARION ",16,346
"496","EG","EG","EGY",818,"Egypt",99545,72849793,2,15,29.872,26.494," HILARION ",26,346
"206134","UK","GB","GBR",826,"United Kingdom",24193,60244834,150,154,-1.6,53," HILARION ",302,346
"206135","UK","GB","GBR",826,"United Kingdom",24193,60244834,150,154,-1.6,53," HILDEGARD OF BINGEN ",302,81
"1635","PL","PL","POL",616,"Poland",30629,38195558,150,151,19.401,52.125," HOFBAUER CLEMENT MARY ",17,249
"5614","AU","AT","AUT",40,"Austria",8245,8291979,150,155,14.912,47.683," HOFBAUER CLEMENT MARY ",24,249
"1636","PL","PL","POL",616,"Poland",30629,38195558,150,151,19.401,52.125," HOLY INNOCENTS ",17,NA
"5615","AU","AT","AUT",40,"Austria",8245,8291979,150,155,14.912,47.683," HOLY INNOCENTS ",24,NA
"8547","IT","IT","ITA",380,"Italy",29411,5864636,150,39,12.8,42.7," HOMOBONUS ",87,91
"6469","FR","FR","FRA",250,"France",55010,60990544,150,155,2.55,46.565," HOMOBONUS ",134,91
"18725","SP","ES","ESP",724,"Spain",49904,43397491,150,39,-3.649,40.227," HOMOBONUS ",70,91
"7131","GM","DE","DEU",276,"Germany",34895,82652369,150,155,9.851,51.11," HOMOBONUS ",65,91
"731","GR","GR","GRC",300,"Greece",12890,11099737,150,39,21.766,39.666," HONORATUS OF ARLES ",4,361
"6470","FR","FR","FRA",250,"France",55010,60990544,150,155,2.55,46.565," HONORATUS OF ARLES ",134,361
"206136","UK","GB","GBR",826,"United Kingdom",24193,60244834,150,154,-1.6,53," HONORIUS ",302,461
"206137","UK","GB","GBR",826,"United Kingdom",24193,60244834,150,154,-1.6,53," HOSS MARIA CRESCENTIA ",302,237
"206138","UK","GB","GBR",826,"United Kingdom",24193,60244834,150,154,-1.6,53," HOUGHTON JOHN ",302,161
"206139","UK","GB","GBR",826,"United Kingdom",24193,60244834,150,154,-1.6,53," HOWARD PHILIP ",302,185
"1284","BE","BE","BEL",56,"Belgium",0,10398049,150,155,4.664,50.643," HUBERT ",8,518
"206140","UK","GB","GBR",826,"United Kingdom",24193,60244834,150,154,-1.6,53," HUBERT ",302,518
"8548","IT","IT","ITA",380,"Italy",29411,5864636,150,39,12.8,42.7," HUGH OF CLUNY ",87,53
"18726","SP","ES","ESP",724,"Spain",49904,43397491,150,39,-3.649,40.227," HUGH OF CLUNY ",70,53
"206141","UK","GB","GBR",826,"United Kingdom",24193,60244834,150,154,-1.6,53," HUGH OF CLUNY ",302,53
"6471","FR","FR","FRA",250,"France",55010,60990544,150,155,2.55,46.565," HUGH OF CLUNY ",134,53
"808","HU","HU","HUN",348,"Hungary",9210,10086387,150,151,19.134,47.07," HUGH OF CLUNY ",25,53
"206142","UK","GB","GBR",826,"United Kingdom",24193,60244834,150,154,-1.6,53," HUGH OF LINCOLN ",302,92
"6472","FR","FR","FRA",250,"France",55010,60990544,150,155,2.55,46.565," HUGH OF LINCOLN ",134,92
"8549","IT","IT","ITA",380,"Italy",29411,5864636,150,39,12.8,42.7," HUGH OF LINCOLN ",87,92
"18727","SP","ES","ESP",724,"Spain",49904,43397491,150,39,-3.649,40.227," HUGH OF LINCOLN ",70,92
"1637","PL","PL","POL",616,"Poland",30629,38195558,150,151,19.401,52.125," HYACINTH OF CRACOW ",17,110
"1022","LH","LT","LTU",440,"Lithuania",6268,3425077,150,154,23.897,55.336," HYACINTH OF CRACOW ",5,110
"1743","RS","RU","RUS",643,"Russia",1638094,143953092,150,151,96.689,61.988," HYACINTH OF CRACOW ",13,110
"18728","SP","ES","ESP",724,"Spain",49904,43397491,150,39,-3.649,40.227," IGNATIUS OF LOYOLA ",70,169
"1385",NA,"PS","PSE",275,"Palestine",0,3762005,142,145,35.278,32.037," IGNATIUS OF LOYOLA ",16,169
"7132","GM","DE","DEU",276,"Germany",34895,82652369,150,155,9.851,51.11," IGNATIUS OF LOYOLA ",65,169
"825","IN","IN","IND",356,"India",297319,1134403141,142,34,78.5,21," IGNATIUS OF LOYOLA ",8,169
"291","CH","CN","CHN",156,"China",932743,1312978855,142,30,106.514,33.42," IGNATIUS OF LOYOLA ",12,169
"554","ET","ET","ETH",231,"Ethiopia",100000,78985857,2,14,39.616,8.626," IGNATIUS OF LOYOLA ",7,169
"26","CF","CG","COG",178,"Congo",34150,3609851,2,17,15.986,-0.055," IGNATIUS OF LOYOLA ",1,169
"231","CA","CA","CAN",124,"Canada",909351,32270507,19,21,-109.433,59.081," IGNATIUS OF LOYOLA ",4,169
"206143","UK","GB","GBR",826,"United Kingdom",24193,60244834,150,154,-1.6,53," IGNATIUS OF LOYOLA ",302,169
"18729","SP","ES","ESP",724,"Spain",49904,43397491,150,39,-3.649,40.227," ILDEPHONSUS OF TOLEDO ",70,478
"18730","SP","ES","ESP",724,"Spain",49904,43397491,150,39,-3.649,40.227," ILLTUD ",70,388
"5061","EI","IE","IRL",372,"Ireland",6889,4143294,150,154,-8.152,53.177," INDRACT ",93,498
"237","RB","RS","SRB",688,"Serbia",0,9863026,150,39,20.806,44.032," IRENAEUS OF SIRMIUM ",2,327
"18731","SP","ES","ESP",724,"Spain",49904,43397491,150,39,-3.649,40.227," ISIDORE OF SEVILLE ",70,448
"18732","SP","ES","ESP",724,"Spain",49904,43397491,150,39,-3.649,40.227," ISIDORE THE FARMER ",70,60
"5062","EI","IE","IRL",372,"Ireland",6889,4143294,150,154,-8.152,53.177," ITA ",93,411
"206144","UK","GB","GBR",826,"United Kingdom",24193,60244834,150,154,-1.6,53," IVES ",302,NA
"206145","UK","GB","GBR",826,"United Kingdom",24193,60244834,150,154,-1.6,53," JAMBERT JAENBEORHT ",302,556
"809","HU","HU","HUN",348,"Hungary",9210,10086387,150,151,19.134,47.07," JAMES OF THE MARCHES ",25,154
"8550","IT","IT","ITA",380,"Italy",29411,5864636,150,39,12.8,42.7," JAMES THE DEACON ",87,476
"206146","UK","GB","GBR",826,"United Kingdom",24193,60244834,150,154,-1.6,53," JAMES THE DEACON ",302,476
"18733","SP","ES","ESP",724,"Spain",49904,43397491,150,39,-3.649,40.227," JAMES THE GREAT ",70,366
"206147","UK","GB","GBR",826,"United Kingdom",24193,60244834,150,154,-1.6,53," JAMES THE GREAT ",302,366
"206148","UK","GB","GBR",826,"United Kingdom",24193,60244834,150,154,-1.6,53," JAMES THE LESS ",302,6
"8551","IT","IT","ITA",380,"Italy",29411,5864636,150,39,12.8,42.7," JEROME HIERONYMUS ",87,359
"1386",NA,"PS","PSE",275,"Palestine",0,3762005,142,145,35.278,32.037," JEROME HIERONYMUS ",16,359
"206149","UK","GB","GBR",826,"United Kingdom",24193,60244834,150,154,-1.6,53," JOACHIM ",302,6
"6473","FR","FR","FRA",250,"France",55010,60990544,150,155,2.55,46.565," JOACHIM ",134,6
"6474","FR","FR","FRA",250,"France",55010,60990544,150,155,2.55,46.565," JOAN OF ARC ",134,145
"206150","UK","GB","GBR",826,"United Kingdom",24193,60244834,150,154,-1.6,53," JOAN OF ARC ",302,145
"206151","UK","GB","GBR",826,"United Kingdom",24193,60244834,150,154,-1.6,53," JOAVAN ",302,407
"232","CA","CA","CAN",124,"Canada",909351,32270507,19,21,-109.433,59.081," JOGUES ISAAC ",4,213
"6475","FR","FR","FRA",250,"France",55010,60990544,150,155,2.55,46.565," JOGUES ISAAC ",134,213
"206152","UK","GB","GBR",826,"United Kingdom",24193,60244834,150,154,-1.6,53," JOHN THE APOSTLE ",302,7
"1191","MX","MX","MEX",484,"Mexico",190869,104266392,19,13,-102.535,23.951," JOHN OF AVILA ",5,172
"206153","UK","GB","GBR",826,"United Kingdom",24193,60244834,150,154,-1.6,53," JOHN THE BAPTIST ",302,324
"18734","SP","ES","ESP",724,"Spain",49904,43397491,150,39,-3.649,40.227," JOHN BAPTIST OF THE CONCEPTION ",70,196
"8552","IT","IT","ITA",380,"Italy",29411,5864636,150,39,12.8,42.7," JOHN OF CAPISTRANO ",87,150
"5616","AU","AT","AUT",40,"Austria",8245,8291979,150,155,14.912,47.683," JOHN OF CAPISTRANO ",24,150
"8010","HU","HU","HUN",348,"Hungary",9210,10086387,150,151,19.134,47.07," JOHN OF CAPISTRANO ",25,150
"46","AM","AM","ARM",51,"Armenia",2820,3017661,142,145,44.563,40.534," JOHN CHRYSOSTOM ",7,357
"1387",NA,"PS","PSE",275,"Palestine",0,3762005,142,145,35.278,32.037," JOHN CLIMACUS ",16,457
"18735","SP","ES","ESP",724,"Spain",49904,43397491,150,39,-3.649,40.227," JOHN JOSEPH OF THE CROSS ",70,234
"1657","PO","PT","PRT",620,"Portugal",9150,10528226,150,39,-8.058,40.309," JOHN OF GOD ",15,167
"18736","SP","ES","ESP",724,"Spain",49904,43397491,150,39,-3.649,40.227," JOHN OF GOD ",70,167
"8011","HU","HU","HUN",348,"Hungary",9210,10086387,150,151,19.134,47.07," JOHN OF GOD ",25,167
"1638","PL","PL","POL",616,"Poland",30629,38195558,150,151,19.401,52.125," JOHN OF KANTI ",17,153
"18737","SP","ES","ESP",724,"Spain",49904,43397491,150,39,-3.649,40.227," JOHN OF SAHAGUN OF SAINT FACUNDO ",70,155
"497","EG","EG","EGY",818,"Egypt",99545,72849793,2,15,29.872,26.494," JOHN THE ALMSGIVER ",26,437
"431","CY","CY","CYP",196,"Cyprus",924,836321,142,145,33.219,35.043," JOHN THE ALMSGIVER ",3,437
"8012","HU","HU","HUN",348,"Hungary",9210,10086387,150,151,19.134,47.07," JOHN THE ALMSGIVER ",25,437
"498","EG","EG","EGY",818,"Egypt",99545,72849793,2,15,29.872,26.494," JOHN THE DWARF ",26,369
"432","CY","CY","CYP",196,"Cyprus",924,836321,142,145,33.219,35.043," JOHN THE DWARF ",3,369
"8013","HU","HU","HUN",348,"Hungary",9210,10086387,150,151,19.134,47.07," JOHN THE DWARF ",25,369
"499","EG","EG","EGY",818,"Egypt",99545,72849793,2,15,29.872,26.494," JOHN THE SAGE ",26,NA
"433","CY","CY","CYP",196,"Cyprus",924,836321,142,145,33.219,35.043," JOHN THE SAGE ",3,NA
"8014","HU","HU","HUN",348,"Hungary",9210,10086387,150,151,19.134,47.07," JOHN THE SAGE ",25,NA
"6476","FR","FR","FRA",250,"France",55010,60990544,150,155,2.55,46.565," JONES JOHN BUCKLEY ",134,187
"206154","UK","GB","GBR",826,"United Kingdom",24193,60244834,150,154,-1.6,53," JONES JOHN BUCKLEY ",302,187
"4910","EG","EG","EGY",818,"Egypt",99545,72849793,2,15,29.872,26.494," JOSEPH ",26,NA
"206155","UK","GB","GBR",826,"United Kingdom",24193,60244834,150,154,-1.6,53," JOSEPH ",302,NA
"19016","SW","SE","SWE",752,"Sweden",41033,9038049,150,154,15.27,62.011," JOSEPH ",26,NA
"206156","UK","GB","GBR",826,"United Kingdom",24193,60244834,150,154,-1.6,53," JOSEPH OF ARIMATHEA ",302,6
"206157","UK","GB","GBR",826,"United Kingdom",24193,60244834,150,154,-1.6,53," JUDITH AND SALOME ",302,574
"206158","UK","GB","GBR",826,"United Kingdom",24193,60244834,150,154,-1.6,53," JUDOC ",302,473
"6477","FR","FR","FRA",250,"France",55010,60990544,150,155,2.55,46.565," JUDOC ",134,473
"7133","GM","DE","DEU",276,"Germany",34895,82652369,150,155,9.851,51.11," JUDOC ",65,473
"19211","SZ","CH","CHE",756,"Switzerland",4000,7424389,150,155,7.908,46.861," JUDOC ",22,473
"5617","AU","AT","AUT",40,"Austria",8245,8291979,150,155,14.912,47.683," JUDOC ",24,473
"206159","UK","GB","GBR",826,"United Kingdom",24193,60244834,150,154,-1.6,53," JULIAN OF LE MANS ",302,342
"206160","UK","GB","GBR",826,"United Kingdom",24193,60244834,150,154,-1.6,53," JULIANA ",302,334
"206161","UK","GB","GBR",826,"United Kingdom",24193,60244834,150,154,-1.6,53," JULIANA FALCONIERI ",302,130
"206162","UK","GB","GBR",826,"United Kingdom",24193,60244834,150,154,-1.6,53," JULIOT ",302,NA
"206163","UK","GB","GBR",826,"United Kingdom",24193,60244834,150,154,-1.6,53," JULIUS AND AARON ",302,327
"21","BU","BG","BGR",100,"Bulgaria",11063,7744591,150,151,25.231,42.761," JULIUS THE VETERAN ",3,327
"6478","FR","FR","FRA",250,"France",55010,60990544,150,155,2.55,46.565," JUSTUS JUST ",134,441
"6479","FR","FR","FRA",250,"France",55010,60990544,150,155,2.55,46.565," JUSTUS JUST ",134,NA
"6480","FR","FR","FRA",250,"France",55010,60990544,150,155,2.55,46.565," JUSTUS OF BEAUVAIS ",134,308
"1285","BE","BE","BEL",56,"Belgium",0,10398049,150,155,4.664,50.643," JUSTUS OF BEAUVAIS ",8,308
"19212","SZ","CH","CHE",756,"Switzerland",4000,7424389,150,155,7.908,46.861," JUSTUS OF BEAUVAIS ",22,308
"1023","LH","LT","LTU",440,"Lithuania",6268,3425077,150,154,23.897,55.336," KALINOWSKI RAPHAEL ",5,285
"5618","AU","AT","AUT",40,"Austria",8245,8291979,150,155,14.912,47.683," KALINOWSKI RAPHAEL ",24,285
"1639","PL","PL","POL",616,"Poland",30629,38195558,150,151,19.401,52.125," KALINOWSKI RAPHAEL ",17,285
"206164","UK","GB","GBR",826,"United Kingdom",24193,60244834,150,154,-1.6,53," KEMBLE JOHN ",302,221
"206165","UK","GB","GBR",826,"United Kingdom",24193,60244834,150,154,-1.6,53," KENELM CYNHELM ",302,568
"206166","UK","GB","GBR",826,"United Kingdom",24193,60244834,150,154,-1.6,53," KENTIGERN MUNGO ",302,431
"5063","EI","IE","IRL",372,"Ireland",6889,4143294,150,154,-8.152,53.177," KENTIGERNA CAENTIGERN QUENTIGERNA ",93,523
"5064","EI","IE","IRL",372,"Ireland",6889,4143294,150,154,-8.152,53.177," KEVIN COEMGEN ",93,435
"7134","GM","DE","DEU",276,"Germany",34895,82652369,150,155,9.851,51.11," KILIAN CHILIAN ",65,489
"6481","FR","FR","FRA",250,"France",55010,60990544,150,155,2.55,46.565," COMPANIONS ",134,269
"292","CH","CN","CHN",156,"China",932743,1312978855,142,30,106.514,33.42," COMPANIONS ",12,269
"6482","FR","FR","FRA",250,"France",55010,60990544,150,155,2.55,46.565," KINEMARK CYNFARCH OER ",134,369
"293","CH","CN","CHN",156,"China",932743,1312978855,142,30,106.514,33.42," KINEMARK CYNFARCH OER ",12,369
"206167","UK","GB","GBR",826,"United Kingdom",24193,60244834,150,154,-1.6,53," KIRBY LUKE",302,176
"16310","PL","PL","POL",616,"Poland",30629,38195558,150,151,19.401,52.125," KOLBE MAXIMILIAN ",17,295
"882","JA","JP","JPN",392,"Japan",36450,127896740,142,30,139.068,36.491," KOLBE MAXIMILIAN ",7,295
"294","CH","CN","CHN",156,"China",932743,1312978855,142,30,106.514,33.42," KOREA MARTYRS OF ",12,269
"16311","PL","PL","POL",616,"Poland",30629,38195558,150,151,19.401,52.125," KOWALSKA MARIA FAUSTINA ",17,293
"206168","UK","GB","GBR",826,"United Kingdom",24193,60244834,150,154,-1.6,53," KYNED CENYDD ",302,402
"8553","IT","IT","ITA",380,"Italy",29411,5864636,150,39,12.8,42.7," LABRE BENEDICT JOSEPH ",87,245
"19213","SZ","CH","CHE",756,"Switzerland",4000,7424389,150,155,7.908,46.861," LABRE BENEDICT JOSEPH ",22,245
"18738","SP","ES","ESP",724,"Spain",49904,43397491,150,39,-3.649,40.227," LABRE BENEDICT JOSEPH ",70,245
"6483","FR","FR","FRA",250,"France",55010,60990544,150,155,2.55,46.565," LABRE BENEDICT JOSEPH ",134,245
"206169","UK","GB","GBR",826,"United Kingdom",24193,60244834,150,154,-1.6,53," LANFRANC ",302,46
"206170","UK","GB","GBR",826,"United Kingdom",24193,60244834,150,154,-1.6,53,"BAPTIST DE ",302,232
"6484","FR","FR","FRA",250,"France",55010,60990544,150,155,2.55,46.565,"BAPTIST DE ",134,232
"5065","EI","IE","IRL",372,"Ireland",6889,4143294,150,154,-8.152,53.177," LASERIAN ",93,449
"5066","EI","IE","IRL",372,"Ireland",6889,4143294,150,154,-8.152,53.177," LAUDUS LO ",93,459
"18739","SP","ES","ESP",724,"Spain",49904,43397491,150,39,-3.649,40.227," LAURENCE ",70,311
"7135","GM","DE","DEU",276,"Germany",34895,82652369,150,155,9.851,51.11," LAURENCE OF BRINDISI ",65,201
"18740","SP","ES","ESP",724,"Spain",49904,43397491,150,39,-3.649,40.227," LAURENCE OF BRINDISI ",70,201
"1658","PO","PT","PRT",620,"Portugal",9150,10528226,150,39,-8.058,40.309," LAURENCE OF BRINDISI ",15,201
"206171","UK","GB","GBR",826,"United Kingdom",24193,60244834,150,154,-1.6,53," LAURENCE OF CANTERBURY ",302,436
"206172","UK","GB","GBR",826,"United Kingdom",24193,60244834,150,154,-1.6,53,"TOOLE LORCAN UA TUATHAIL ",302,82
"5067","EI","IE","IRL",372,"Ireland",6889,4143294,150,154,-8.152,53.177,"TOOLE LORCAN UA TUATHAIL ",93,82
"6485","FR","FR","FRA",250,"France",55010,60990544,150,155,2.55,46.565," LAZARUS OF BETHANY ",134,6
"18741","SP","ES","ESP",724,"Spain",49904,43397491,150,39,-3.649,40.227," LEANDER ",70,423
"7136","GM","DE","DEU",276,"Germany",34895,82652369,150,155,9.851,51.11," LEBUIN LIAFWINE ",65,545
"153","NL","NL","NLD",528,"Netherlands",3388,1632769,150,155,5.389,52.077," LEBUIN LIAFWINE ",1,545
"206173","UK","GB","GBR",826,"United Kingdom",24193,60244834,150,154,-1.6,53," LEBUIN LIAFWINE ",302,545
"6486","FR","FR","FRA",250,"France",55010,60990544,150,155,2.55,46.565," LEGER LEODEGAR ",134,480
"206174","UK","GB","GBR",826,"United Kingdom",24193,60244834,150,154,-1.6,53," LEGER LEODEGAR ",302,480
"18742","SP","ES","ESP",724,"Spain",49904,43397491,150,39,-3.649,40.227," LEO THE GREAT ",70,374
"8554","IT","IT","ITA",380,"Italy",29411,5864636,150,39,12.8,42.7," LEO IX ",87,29
"7137","GM","DE","DEU",276,"Germany",34895,82652369,150,155,9.851,51.11," LEO IX ",65,29
"6487","FR","FR","FRA",250,"France",55010,60990544,150,155,2.55,46.565," LEO IX ",134,29
"6488","FR","FR","FRA",250,"France",55010,60990544,150,155,2.55,46.565," LEONARD ",134,402
"206175","UK","GB","GBR",826,"United Kingdom",24193,60244834,150,154,-1.6,53," LEONARD ",302,402
"8555","IT","IT","ITA",380,"Italy",29411,5864636,150,39,12.8,42.7," LEONARD ",87,402
"8556","IT","IT","ITA",380,"Italy",29411,5864636,150,39,12.8,42.7," LEONARD OF PORT MAURICE ",87,239
"8557","IT","IT","ITA",380,"Italy",29411,5864636,150,39,12.8,42.7," LEONARDI JOHN ",87,193
"5619","AU","AT","AUT",40,"Austria",8245,8291979,150,155,14.912,47.683," LEOPOLD III ",24,64
"6489","FR","FR","FRA",250,"France",55010,60990544,150,155,2.55,46.565," LESTONNAC JEANNE DE",134,209
"206176","UK","GB","GBR",826,"United Kingdom",24193,60244834,150,154,-1.6,53," LEWIS DAVID CHARLES BAKER ",302,221
"15410","NO","NO","NOR",578,"Norway",30625,4638836,150,154,8.74,61.152," LIDE ELID ELIDIUS ",18,NA
"206177","UK","GB","GBR",826,"United Kingdom",24193,60244834,150,154,-1.6,53," LINE ANNE ",302,189
"7138","GM","DE","DEU",276,"Germany",34895,82652369,150,155,9.851,51.11," LIOBA LIOBGYTHA ",65,549
"206178","UK","GB","GBR",826,"United Kingdom",24193,60244834,150,154,-1.6,53," LIOBA LIOBGYTHA ",302,549
"206179","UK","GB","GBR",826,"United Kingdom",24193,60244834,150,154,-1.6,53," LIUDGER ",302,562
"206180","UK","GB","GBR",826,"United Kingdom",24193,60244834,150,154,-1.6,53," LLOYD JOHN ",302,221
"206181","UK","GB","GBR",826,"United Kingdom",24193,60244834,150,154,-1.6,53," LOMAN LONAN ",302,369
"206182","UK","GB","GBR",826,"United Kingdom",24193,60244834,150,154,-1.6,53," LONGINUS ",302,NA
"6490","FR","FR","FRA",250,"France",55010,60990544,150,155,2.55,46.565," LOUIS LEWIS IX ",134,113
"1388",NA,"PS","PSE",275,"Palestine",0,3762005,142,145,35.278,32.037," LOUIS LEWIS IX ",16,113
"206183","UK","GB","GBR",826,"United Kingdom",24193,60244834,150,154,-1.6,53," LOUIS LEWIS IX ",302,113
"8015","HU","HU","HUN",348,"Hungary",9210,10086387,150,151,19.134,47.07," LOUIS OF TOULOUSE ",25,123
"206184","UK","GB","GBR",826,"United Kingdom",24193,60244834,150,154,-1.6,53," LUCY ",302,327
"19017","SW","SE","SWE",752,"Sweden",41033,9038049,150,154,15.27,62.011," LUCY ",26,327
"206185","UK","GB","GBR",826,"United Kingdom",24193,60244834,150,154,-1.6,53," LUDWAN ",302,NA
"19018","SW","SE","SWE",752,"Sweden",41033,9038049,150,154,15.27,62.011," LUDWAN ",26,NA
"206186","UK","GB","GBR",826,"United Kingdom",24193,60244834,150,154,-1.6,53," LUKE ",302,6
"7139","GM","DE","DEU",276,"Germany",34895,82652369,150,155,9.851,51.11," LULL ",65,551
"206187","UK","GB","GBR",826,"United Kingdom",24193,60244834,150,154,-1.6,53," LULL ",302,551
"206188","UK","GB","GBR",826,"United Kingdom",24193,60244834,150,154,-1.6,53," LUPUS OF TROYES ",302,376
"205","UG","UG","UGA",800,"Uganda",19710,28947181,2,14,32.386,1.28," LWANGA CHARLES AND COMPANIONS ",1,276
"5068","EI","IE","IRL",372,"Ireland",6889,4143294,150,154,-8.152,53.177," MACANISIUS OENGUS MAC NISSE ",93,384
"4911","EG","EG","EGY",818,"Egypt",99545,72849793,2,15,29.872,26.494," MACARIUS THE GREAT OF EGYPT ",26,352
"5069","EI","IE","IRL",372,"Ireland",6889,4143294,150,154,-8.152,53.177," MACHALUS MAGHOR MAUGHOLD ",93,380
"5070","EI","IE","IRL",372,"Ireland",6889,4143294,150,154,-8.152,53.177," MACHAN MANCHAN ",93,402
"161","PE","PE","PER",604,"Peru",128000,27274266,19,5,-75.552,-9.326," MACIAS JOHN ",7,212
"1611","PE","PE","PER",604,"Peru",128000,27274266,19,5,-75.552,-9.326," MACRINA THE ELDER ",7,338
"5071","EI","IE","IRL",372,"Ireland",6889,4143294,150,154,-8.152,53.177," MAEDOC AEDH AIDAN OF FERNS ",93,440
"5072","EI","IE","IRL",372,"Ireland",6889,4143294,150,154,-8.152,53.177," MAELRUAIN ",93,556
"5073","EI","IE","IRL",372,"Ireland",6889,4143294,150,154,-8.152,53.177," MAELRUBBA MALRUBIUS ",93,516
"1659","PO","PT","PRT",620,"Portugal",9150,10528226,150,39,-8.058,40.309," MAFALDA OF PORTUGAL ",15,110
"1192","MX","MX","MEX",484,"Mexico",190869,104266392,19,13,-102.535,23.951," COMPANIONS ",5,292
"15411","NO","NO","NOR",578,"Norway",30625,4638836,150,154,8.74,61.152," MAGNUS ",18,55
"206189","UK","GB","GBR",826,"United Kingdom",24193,60244834,150,154,-1.6,53," MAGNUS ",302,55
"6491","FR","FR","FRA",250,"France",55010,60990544,150,155,2.55,46.565," MAIEUL ",134,616
"5074","EI","IE","IRL",372,"Ireland",6889,4143294,150,154,-8.152,53.177," MALACHY MAOL MAEDOC ",93,67
"206190","UK","GB","GBR",826,"United Kingdom",24193,60244834,150,154,-1.6,53," MALO MACHUTUS MACLOU ",302,423
"18743","SP","ES","ESP",724,"Spain",49904,43397491,150,39,-3.649,40.227," MARCELLUS THE CENTURION ",70,322
"6492","FR","FR","FRA",250,"France",55010,60990544,150,155,2.55,46.565," MARCOUL MARCULF ",134,404
"206191","UK","GB","GBR",826,"United Kingdom",24193,60244834,150,154,-1.6,53," MARGARET MARINA OF ANTIOCH ",302,NA
"8558","IT","IT","ITA",380,"Italy",29411,5864636,150,39,12.8,42.7," MARGARET OF CORTONA ",87,608
"8016","HU","HU","HUN",348,"Hungary",9210,10086387,150,151,19.134,47.07," MARGARET OF HUNGARY ",25,113
"8017","HU","HU","HUN",348,"Hungary",9210,10086387,150,151,19.134,47.07," MARGARET OF SCOTLAND ",25,47
"8018","HU","HU","HUN",348,"Hungary",9210,10086387,150,151,19.134,47.07," MARIAN AND JAMES ",25,312
"8019","HU","HU","HUN",348,"Hungary",9210,10086387,150,151,19.134,47.07," MARTIN OF BRAGA ",25,416
"18744","SP","ES","ESP",724,"Spain",49904,43397491,150,39,-3.649,40.227," MARTIN OF BRAGA ",70,416
"16510","PO","PT","PRT",620,"Portugal",9150,10528226,150,39,-8.058,40.309," MARTIN OF BRAGA ",15,416
"8020","HU","HU","HUN",348,"Hungary",9210,10086387,150,151,19.134,47.07," MARTIN OF TOURS ",25,354
"18745","SP","ES","ESP",724,"Spain",49904,43397491,150,39,-3.649,40.227," MARTIN OF TOURS ",70,354
"6493","FR","FR","FRA",250,"France",55010,60990544,150,155,2.55,46.565," MARTIN OF TOURS ",134,354
"7140","GM","DE","DEU",276,"Germany",34895,82652369,150,155,9.851,51.11," MARTIN OF TOURS ",65,354
"206192","UK","GB","GBR",826,"United Kingdom",24193,60244834,150,154,-1.6,53," MARTIN OF TOURS ",302,354
"206193","UK","GB","GBR",826,"United Kingdom",24193,60244834,150,154,-1.6,53," MARTIN I ",302,462
"18746","SP","ES","ESP",724,"Spain",49904,43397491,150,39,-3.649,40.227," MARTIN I ",70,462
"295","CH","CN","CHN",156,"China",932743,1312978855,142,30,106.514,33.42," MARTYRS OF CHINA ",12,NA
"296","CH","CN","CHN",156,"China",932743,1312978855,142,30,106.514,33.42," MARTYRS OF ROME ",12,NA
"206194","UK","GB","GBR",826,"United Kingdom",24193,60244834,150,154,-1.6,53," MARTYRS OF THE SPANISH CIVIL WAR ",302,294
"206195","UK","GB","GBR",826,"United Kingdom",24193,60244834,150,154,-1.6,53," MARY THE BLESSED VIRGIN ",302,6
"6494","FR","FR","FRA",250,"France",55010,60990544,150,155,2.55,46.565," MARY THE BLESSED VIRGIN ",134,6
"16511","PO","PT","PRT",620,"Portugal",9150,10528226,150,39,-8.058,40.309," MARY THE BLESSED VIRGIN ",15,6
"16312","PL","PL","POL",616,"Poland",30629,38195558,150,151,19.401,52.125," MARY THE BLESSED VIRGIN ",17,6
"1193","MX","MX","MEX",484,"Mexico",190869,104266392,19,13,-102.535,23.951," MARY THE BLESSED VIRGIN ",5,6
"206196","UK","GB","GBR",826,"United Kingdom",24193,60244834,150,154,-1.6,53," MARY MAGDALENE ",302,6
"1389",NA,"PS","PSE",275,"Palestine",0,3762005,142,145,35.278,32.037," MARY MAGDALENE ",16,6
"13810",NA,"PS","PSE",275,"Palestine",0,3762005,142,145,35.278,32.037," MARY OF EGYPT ",16,369
"555","ET","ET","ETH",231,"Ethiopia",100000,78985857,2,14,39.616,8.626," MATTHEW ",7,6
"556","ET","ET","ETH",231,"Ethiopia",100000,78985857,2,14,39.616,8.626," MATTHIAS ",7,6
"4912","EG","EG","EGY",818,"Egypt",99545,72849793,2,15,29.872,26.494," MAURICE AND COMPANIONS ",26,318
"206197","UK","GB","GBR",826,"United Kingdom",24193,60244834,150,154,-1.6,53," MAWES MAUDEZ ",302,369
"10211","AG","DZ","DZA",12,"Algeria",238174,32854159,2,15,2.632,28.163," MAXIMILIAN ",4,320
"10221","AG","DZ","DZA",12,"Algeria",238174,32854159,2,15,2.632,28.163," MAXIMUS OF TURIN ",4,358
"206198","UK","GB","GBR",826,"United Kingdom",24193,60244834,150,154,-1.6,53," MAYNE CUTHBERT ",302,174
"233","CA","CA","CAN",124,"Canada",909351,32270507,19,21,-109.433,59.081," MAZENOD CHARLES DE ",4,265
"8559","IT","IT","ITA",380,"Italy",29411,5864636,150,39,12.8,42.7," MAZENOD CHARLES DE ",87,265
"179","SF","ZA","ZAF",710,"South Africa",121447,47938663,2,18,23.121,-30.558," MAZENOD CHARLES DE ",1,265
"7","AR","AR","ARG",32,"Argentina",273669,38747148,19,5,-65.167,-35.377," MAZZARELLO ",3,274
"7141","GM","DE","DEU",276,"Germany",34895,82652369,150,155,9.851,51.11," MEINHARD OF LATVIA ",65,90
"1744","RS","RU","RUS",643,"Russia",1638094,143953092,150,151,96.689,61.988," MEINHARD OF LATVIA ",13,90
"1001","LG","LV","LVA",428,"Latvia",6205,2301793,150,154,25.641,56.858," MEINHARD OF LATVIA ",2,90
"19214","SZ","CH","CHE",756,"Switzerland",4000,7424389,150,155,7.908,46.861," MEINRAD ",22,577
"19215","SZ","CH","CHE",756,"Switzerland",4000,7424389,150,155,7.908,46.861," MEL ",22,378
"19216","SZ","CH","CHE",756,"Switzerland",4000,7424389,150,155,7.908,46.861," MELANGELL MONACELLA ",22,NA
"206199","UK","GB","GBR",826,"United Kingdom",24193,60244834,150,154,-1.6,53," MELLITUS ",302,438
"4913","EG","EG","EGY",818,"Egypt",99545,72849793,2,15,29.872,26.494," MENNAS ",26,325
"4914","EG","EG","EGY",818,"Egypt",99545,72849793,2,15,29.872,26.494," MEREWENNA ",26,603
"6495","FR","FR","FRA",250,"France",55010,60990544,150,155,2.55,46.565," MERIASEK MERIADOC ",134,402
"5075","EI","IE","IRL",372,"Ireland",6889,4143294,150,154,-8.152,53.177," MEUBRED MYBARD ",93,382
"6496","FR","FR","FRA",250,"France",55010,60990544,150,155,2.55,46.565," MEWAN MEEN ",134,402
"84","IS","IL","ISR",376,"Israel",2171,6692037,142,145,34.851,31.026," MICHAEL ",1,4
"732","GR","GR","GRC",300,"Greece",12890,11099737,150,39,21.766,39.666," MICHAEL ",4,4
"206200","UK","GB","GBR",826,"United Kingdom",24193,60244834,150,154,-1.6,53," MICHAEL ",302,4
"883","JA","JP","JPN",392,"Japan",36450,127896740,142,30,139.068,36.491," MIKI PAUL AND COMPANIONS ",7,186
"5076","EI","IE","IRL",372,"Ireland",6889,4143294,150,154,-8.152,53.177," MOCHTA MOCHUTA ",93,369
"5077","EI","IE","IRL",372,"Ireland",6889,4143294,150,154,-8.152,53.177," MODOMNOC ",93,402
"5078","EI","IE","IRL",372,"Ireland",6889,4143294,150,154,-8.152,53.177," MODWENNA ",93,459
"206201","UK","GB","GBR",826,"United Kingdom",24193,60244834,150,154,-1.6,53," MODWENNA ",302,459
"18747","SP","ES","ESP",724,"Spain",49904,43397491,150,39,-3.649,40.227," MOLAS Y VALLVE MARY ROSE ",70,272
"5079","EI","IE","IRL",372,"Ireland",6889,4143294,150,154,-8.152,53.177," MOLUAG LUGAID MOLLOCH  ",93,420
"6497","FR","FR","FRA",250,"France",55010,60990544,150,155,2.55,46.565," MORE THOMAS ",134,161
"206202","UK","GB","GBR",826,"United Kingdom",24193,60244834,150,154,-1.6,53," MORE THOMAS ",302,161
"7142","GM","DE","DEU",276,"Germany",34895,82652369,150,155,9.851,51.11," MORE THOMAS ",65,161
"206203","UK","GB","GBR",826,"United Kingdom",24193,60244834,150,154,-1.6,53," MORSE HENRY ",302,212
"206204","UK","GB","GBR",826,"United Kingdom",24193,60244834,150,154,-1.6,53," MYLOR MELOR MELAR ",302,NA
"206205","UK","GB","GBR",826,"United Kingdom",24193,60244834,150,154,-1.6,53," NEOT ",302,586
"6498","FR","FR","FRA",250,"France",55010,60990544,150,155,2.55,46.565," NERI PHILIP ",134,185
"8560","IT","IT","ITA",380,"Italy",29411,5864636,150,39,12.8,42.7," NICETIUS OF TRIER ",87,406
"18748","SP","ES","ESP",724,"Spain",49904,43397491,150,39,-3.649,40.227," NICETIUS OF TRIER ",70,406
"2011","TU","TR","TUR",792,"Turkey",76963,72969723,142,145,35.179,39.061," NICHOLAS ",2,342
"1745","RS","RU","RUS",643,"Russia",1638094,143953092,150,151,96.689,61.988," NICHOLAS ",13,342
"206206","UK","GB","GBR",826,"United Kingdom",24193,60244834,150,154,-1.6,53," NICHOLAS ",302,342
"19019","SW","SE","SWE",752,"Sweden",41033,9038049,150,154,15.27,62.011," NICHOLAS NILS HERMANSSON ",26,139
"19217","SZ","CH","CHE",756,"Switzerland",4000,7424389,150,155,7.908,46.861," NICHOLAS OF FLUE ",22,157
"448","DA","DK","DNK",208,"Denmark",4243,5416945,150,154,9.264,56.058," NINIAN NYNIA ",16,369
"449","DA","DK","DNK",208,"Denmark",4243,5416945,150,154,9.264,56.058," NINNOC GWENGUSTLE ",16,NA
"6499","FR","FR","FRA",250,"France",55010,60990544,150,155,2.55,46.565," NORBERT ",134,63
"7143","GM","DE","DEU",276,"Germany",34895,82652369,150,155,9.851,51.11," NORBERT ",65,63
"8561","IT","IT","ITA",380,"Italy",29411,5864636,150,39,12.8,42.7," NORBERT ",87,63
"64100","FR","FR","FRA",250,"France",55010,60990544,150,155,2.55,46.565," ODA ODO ",134,605
"206207","UK","GB","GBR",826,"United Kingdom",24193,60244834,150,154,-1.6,53," ODA ODO ",302,605
"5080","EI","IE","IRL",372,"Ireland",6889,4143294,150,154,-8.152,53.177," ODA ODO ",93,605
"8562","IT","IT","ITA",380,"Italy",29411,5864636,150,39,12.8,42.7," ODILO ",87,27
"18749","SP","ES","ESP",724,"Spain",49904,43397491,150,39,-3.649,40.227," ODILO ",70,27
"64101","FR","FR","FRA",250,"France",55010,60990544,150,155,2.55,46.565," ODO OF CLUNY ",134,602
"206208","UK","GB","GBR",826,"United Kingdom",24193,60244834,150,154,-1.6,53," ODO OF CLUNY ",302,602
"8563","IT","IT","ITA",380,"Italy",29411,5864636,150,39,12.8,42.7," ODO OF CLUNY ",87,602
"64102","FR","FR","FRA",250,"France",55010,60990544,150,155,2.55,46.565," ODRAN OTTERAN OF IONA ",134,408
"206209","UK","GB","GBR",826,"United Kingdom",24193,60244834,150,154,-1.6,53," ODRAN OTTERAN OF IONA ",302,408
"8564","IT","IT","ITA",380,"Italy",29411,5864636,150,39,12.8,42.7," ODRAN OTTERAN OF IONA ",87,408
"1286","BE","BE","BEL",56,"Belgium",0,10398049,150,155,4.664,50.643," ODULF ",8,575
"5081","EI","IE","IRL",372,"Ireland",6889,4143294,150,154,-8.152,53.177," OENGUS THE CULDEE ",93,569
"206210","UK","GB","GBR",826,"United Kingdom",24193,60244834,150,154,-1.6,53," OFFA OF ESSEX ",302,502
"64103","FR","FR","FRA",250,"France",55010,60990544,150,155,2.55,46.565," OGILVIE JOHN ",134,198
"5620","AU","AT","AUT",40,"Austria",8245,8291979,150,155,14.912,47.683," OGILVIE JOHN ",24,198
"206211","UK","GB","GBR",826,"United Kingdom",24193,60244834,150,154,-1.6,53," OLAF OLAVE OLA TOLA ",302,21
"15412","NO","NO","NOR",578,"Norway",30625,4638836,150,154,8.74,61.152," OLAF OLAVE OLA TOLA ",18,21
"4410","DA","DK","DNK",208,"Denmark",4243,5416945,150,154,9.264,56.058," OLAF OLAVE OLA TOLA ",16,21
"206212","UK","GB","GBR",826,"United Kingdom",24193,60244834,150,154,-1.6,53," OLGA ",302,607
"15413","NO","NO","NOR",578,"Norway",30625,4638836,150,154,8.74,61.152," OLGA ",18,607
"4411","DA","DK","DNK",208,"Denmark",4243,5416945,150,154,9.264,56.058," OLGA ",16,607
"206213","UK","GB","GBR",826,"United Kingdom",24193,60244834,150,154,-1.6,53," OSBURGA ",302,17
"18750","SP","ES","ESP",724,"Spain",49904,43397491,150,39,-3.649,40.227," OSMANNA ",70,NA
"206214","UK","GB","GBR",826,"United Kingdom",24193,60244834,150,154,-1.6,53," OSMUND OSMER ",302,49
"5082","EI","IE","IRL",372,"Ireland",6889,4143294,150,154,-8.152,53.177," OSWALD ",93,452
"206215","UK","GB","GBR",826,"United Kingdom",24193,60244834,150,154,-1.6,53," OSWALD ",302,452
"16512","PO","PT","PRT",620,"Portugal",9150,10528226,150,39,-8.058,40.309," OSWALD ",15,452
"7144","GM","DE","DEU",276,"Germany",34895,82652369,150,155,9.851,51.11," OSWALD ",65,452
"5621","AU","AT","AUT",40,"Austria",8245,8291979,150,155,14.912,47.683," OSWALD ",24,452
"206216","UK","GB","GBR",826,"United Kingdom",24193,60244834,150,154,-1.6,53," OSWALD ",302,615
"206217","UK","GB","GBR",826,"United Kingdom",24193,60244834,150,154,-1.6,53," OSWIN OSWINI ",302,460
"206218","UK","GB","GBR",826,"United Kingdom",24193,60244834,150,154,-1.6,53," OUDOCEUS ",302,433
"206219","UK","GB","GBR",826,"United Kingdom",24193,60244834,150,154,-1.6,53," OWEN NICHOLAS ",302,190
"206220","UK","GB","GBR",826,"United Kingdom",24193,60244834,150,154,-1.6,53," PAINE JOHN ",302,176
"206221","UK","GB","GBR",826,"United Kingdom",24193,60244834,150,154,-1.6,53," PALLADIUS ",302,369
"5083","EI","IE","IRL",372,"Ireland",6889,4143294,150,154,-8.152,53.177," PALLADIUS ",93,369
"8565","IT","IT","ITA",380,"Italy",29411,5864636,150,39,12.8,42.7," PALLOTTI VINCENT ",87,259
"203","BR","BR","BRA",76,"Brazil",845942,186830759,19,5,-53.089,-10.772," PALLOTTI VINCENT ",5,259
"83","AS","AU","AUS",36,"Australia",768230,20310208,9,53,136.189,-24.973," PALLOTTI VINCENT ",4,259
"206222","UK","GB","GBR",826,"United Kingdom",24193,60244834,150,154,-1.6,53," PANCRAS OF ROME ",302,360
"206223","UK","GB","GBR",826,"United Kingdom",24193,60244834,150,154,-1.6,53," PANCRAS OF TAORMINA ",302,6
"673","GG","GE","GEO",268,"Georgia",6949,4473409,142,145,43.518,42.176," PANCRAS OF TAORMINA ",4,6
"7145","GM","DE","DEU",276,"Germany",34895,82652369,150,155,9.851,51.11," PANTALEON PANTELEIMON ",65,328
"160","PA","PY","PRY",600,"Paraguay",39730,5904342,19,5,-58.391,-23.236," PARAGUAY MARTYRS OF ",2,206
"204","BR","BR","BRA",76,"Brazil",845942,186830759,19,5,-53.089,-10.772," PARAGUAY MARTYRS OF ",5,206
"72","AR","AR","ARG",32,"Argentina",273669,38747148,19,5,-65.167,-35.377," PARAGUAY MARTYRS OF ",3,206
"884","JA","JP","JPN",392,"Japan",36450,127896740,142,30,139.068,36.491," PAREDES MARIANA OF QUITO ",7,212
"5084","EI","IE","IRL",372,"Ireland",6889,4143294,150,154,-8.152,53.177," PATRICK ",93,369
"206224","UK","GB","GBR",826,"United Kingdom",24193,60244834,150,154,-1.6,53," PATRICK ",302,369
"2082","US","US","USA",840,"United States",915896,299846449,19,21,-98.606,39.622," PATRICK ",4,369
"86","AS","AU","AUS",36,"Australia",768230,20310208,9,53,136.189,-24.973," PATRICK ",4,369
"733","GR","GR","GRC",300,"Greece",12890,11099737,150,39,21.766,39.666," PAUL ",4,458
"18751","SP","ES","ESP",724,"Spain",49904,43397491,150,39,-3.649,40.227," PAUL ",70,458
"8566","IT","IT","ITA",380,"Italy",29411,5864636,150,39,12.8,42.7," PAUL OF THE CROSS ",87,243
"206225","UK","GB","GBR",826,"United Kingdom",24193,60244834,150,154,-1.6,53," PAUL OF THE CROSS ",302,243
"4915","EG","EG","EGY",818,"Egypt",99545,72849793,2,15,29.872,26.494," PAUL THE FIRST HERMIT OF THEBES ",26,339
"4916","EG","EG","EGY",818,"Egypt",99545,72849793,2,15,29.872,26.494," PAULA ",26,356
"8567","IT","IT","ITA",380,"Italy",29411,5864636,150,39,12.8,42.7," PAULINUS OF NOLA ",87,363
"18752","SP","ES","ESP",724,"Spain",49904,43397491,150,39,-3.649,40.227," PAULINUS OF NOLA ",70,363
"64104","FR","FR","FRA",250,"France",55010,60990544,150,155,2.55,46.565," PAULINUS OF NOLA ",134,363
"206226","UK","GB","GBR",826,"United Kingdom",24193,60244834,150,154,-1.6,53," PAULINUS OF YORK ",302,453
"4917","EG","EG","EGY",818,"Egypt",99545,72849793,2,15,29.872,26.494," PELAGIA ",26,369
"13811",NA,"PS","PSE",275,"Palestine",0,3762005,142,145,35.278,32.037," PELAGIA ",16,369
"4918","EG","EG","EGY",818,"Egypt",99545,72849793,2,15,29.872,26.494," PELAGIA OF ANTIOCH ",26,331
"13812",NA,"PS","PSE",275,"Palestine",0,3762005,142,145,35.278,32.037," PELAGIA OF ANTIOCH ",16,331
"4919","EG","EG","EGY",818,"Egypt",99545,72849793,2,15,29.872,26.494," PELLEGRINO LAZIOSI ",26,131
"13813",NA,"PS","PSE",275,"Palestine",0,3762005,142,145,35.278,32.037," PELLEGRINO LAZIOSI ",16,131
"297","CH","CN","CHN",156,"China",932743,1312978855,142,30,106.514,33.42," PERBOYRE JOHN GABRIEL ",12,255
"298","CH","CN","CHN",156,"China",932743,1312978855,142,30,106.514,33.42," PEREGRINE OF AUXERRE ",12,314
"299","CH","CN","CHN",156,"China",932743,1312978855,142,30,106.514,33.42," PERPETUA AND FELICITAS FELICITY ",12,301
"206227","UK","GB","GBR",826,"United Kingdom",24193,60244834,150,154,-1.6,53," PETER ",302,450
"18753","SP","ES","ESP",724,"Spain",49904,43397491,150,39,-3.649,40.227," PETER OF ALCANTARA ",70,170
"207","BR","BR","BRA",76,"Brazil",845942,186830759,19,5,-53.089,-10.772," PETER OF ALCANTARA ",5,170
"206228","UK","GB","GBR",826,"United Kingdom",24193,60244834,150,154,-1.6,53," PETER OF CANTERBURY ",302,428
"8568","IT","IT","ITA",380,"Italy",29411,5864636,150,39,12.8,42.7," PETER OF TARENTAISE ",87,80
"206229","UK","GB","GBR",826,"United Kingdom",24193,60244834,150,154,-1.6,53," PETER OF TARENTAISE ",302,80
"64105","FR","FR","FRA",250,"France",55010,60990544,150,155,2.55,46.565," PETER OF TARENTAISE ",134,80
"8021","HU","HU","HUN",348,"Hungary",9210,10086387,150,151,19.134,47.07," PETER CELESTINE CELESTINE V ",25,122
"64106","FR","FR","FRA",250,"France",55010,60990544,150,155,2.55,46.565," PETER CELESTINE CELESTINE V ",134,122
"8569","IT","IT","ITA",380,"Italy",29411,5864636,150,39,12.8,42.7," PETER CELESTINE CELESTINE V ",87,122
"8570","IT","IT","ITA",380,"Italy",29411,5864636,150,39,12.8,42.7," PETER DAMIAN ",87,35
"7146","GM","DE","DEU",276,"Germany",34895,82652369,150,155,9.851,51.11," PETER DAMIAN ",65,35
"64107","FR","FR","FRA",250,"France",55010,60990544,150,155,2.55,46.565," PETER DAMIAN ",134,35
"18754","SP","ES","ESP",724,"Spain",49904,43397491,150,39,-3.649,40.227," PETER NOLASCO ",70,109
"8571","IT","IT","ITA",380,"Italy",29411,5864636,150,39,12.8,42.7," PETER THE MARTYR OF VERONA ",87,106
"206230","UK","GB","GBR",826,"United Kingdom",24193,60244834,150,154,-1.6,53," PETROC ",302,402
"64108","FR","FR","FRA",250,"France",55010,60990544,150,155,2.55,46.565," PETRONILLA ",134,NA
"8572","IT","IT","ITA",380,"Italy",29411,5864636,150,39,12.8,42.7," PHILIP BENIZI ",87,119
"64109","FR","FR","FRA",250,"France",55010,60990544,150,155,2.55,46.565," PHILIP BENIZI ",134,119
"7147","GM","DE","DEU",276,"Germany",34895,82652369,150,155,9.851,51.11," PHILIP BENIZI ",65,119
"18755","SP","ES","ESP",724,"Spain",49904,43397491,150,39,-3.649,40.227," PIGNATELLI JOSEPH ",70,248
"8573","IT","IT","ITA",380,"Italy",29411,5864636,150,39,12.8,42.7," PIGNATELLI JOSEPH ",87,248
"1746","RS","RU","RUS",643,"Russia",1638094,143953092,150,151,96.689,61.988," PIGNATELLI JOSEPH ",13,248
"5085","EI","IE","IRL",372,"Ireland",6889,4143294,150,154,-8.152,53.177," PIRAN PERRAN ",93,377
"19218","SZ","CH","CHE",756,"Switzerland",4000,7424389,150,155,7.908,46.861," PIRMIN ",22,537
"8574","IT","IT","ITA",380,"Italy",29411,5864636,150,39,12.8,42.7," PIUS V ",87,513
"18756","SP","ES","ESP",724,"Spain",49904,43397491,150,39,-3.649,40.227," PIUS V ",70,513
"206231","UK","GB","GBR",826,"United Kingdom",24193,60244834,150,154,-1.6,53," PIUS V ",302,513
"5622","AU","AT","AUT",40,"Austria",8245,8291979,150,155,14.912,47.683," PIUS V ",24,513
"64110","FR","FR","FRA",250,"France",55010,60990544,150,155,2.55,46.565," PIUS X ",134,287
"18757","SP","ES","ESP",724,"Spain",49904,43397491,150,39,-3.649,40.227," PLACID ",70,402
"206232","UK","GB","GBR",826,"United Kingdom",24193,60244834,150,154,-1.6,53," PLASDEN POLYDORE OLIVER PALMER ",302,182
"206233","UK","GB","GBR",826,"United Kingdom",24193,60244834,150,154,-1.6,53," PLECHELM PLEGHELM ",302,534
"18758","SP","ES","ESP",724,"Spain",49904,43397491,150,39,-3.649,40.227," PLESSINGTON JOHN WILLIAM SCARISBRICK ",70,221
"206234","UK","GB","GBR",826,"United Kingdom",24193,60244834,150,154,-1.6,53," PLESSINGTON JOHN WILLIAM SCARISBRICK ",302,221
"5086","EI","IE","IRL",372,"Ireland",6889,4143294,150,154,-8.152,53.177," PLUNKET OLIVER ",93,223
"4920","EG","EG","EGY",818,"Egypt",99545,72849793,2,15,29.872,26.494," PONTIAN AND HIPPOLYTUS ",26,306
"1612","PE","PE","PER",604,"Peru",128000,27274266,19,5,-75.552,-9.326," PORRES MARTIN DE ",7,208
"4921","EG","EG","EGY",818,"Egypt",99545,72849793,2,15,29.872,26.494," POTAMIAENA AND BASILIDES ",26,302
"64111","FR","FR","FRA",250,"France",55010,60990544,150,155,2.55,46.565," PROSPER OF AQUITAINE ",134,373
"4922","EG","EG","EGY",818,"Egypt",99545,72849793,2,15,29.872,26.494," PROTUS AND HYACINTH ",26,342
"7148","GM","DE","DEU",276,"Germany",34895,82652369,150,155,9.851,51.11," QUENBURGA COENBURGA ",65,524
"7149","GM","DE","DEU",276,"Germany",34895,82652369,150,155,9.851,51.11," QUENTIN ",65,NA
"64112","FR","FR","FRA",250,"France",55010,60990544,150,155,2.55,46.565," RADEGUND ",134,418
"206235","UK","GB","GBR",826,"United Kingdom",24193,60244834,150,154,-1.6,53," RADEGUND ",302,418
"206236","UK","GB","GBR",826,"United Kingdom",24193,60244834,150,154,-1.6,53," RAPHAEL ",302,3
"11","AG","DZ","DZA",12,"Algeria",238174,32854159,2,15,2.632,28.163," RAYMUND NONNATUS ",4,101
"18759","SP","ES","ESP",724,"Spain",49904,43397491,150,39,-3.649,40.227," RAYMUND NONNATUS ",70,101
"18760","SP","ES","ESP",724,"Spain",49904,43397491,150,39,-3.649,40.227," RAYMUND OF PENNAFORT ",70,116
"64113","FR","FR","FRA",250,"France",55010,60990544,150,155,2.55,46.565," REGIS JOHN FRANCIS ",134,209
"206237","UK","GB","GBR",826,"United Kingdom",24193,60244834,150,154,-1.6,53," REMIGIUS REMI ",302,392
"19020","SW","SE","SWE",752,"Sweden",41033,9038049,150,154,15.27,62.011," REYNOLDS RICHARD ",26,161
"206238","UK","GB","GBR",826,"United Kingdom",24193,60244834,150,154,-1.6,53," REYNOLDS RICHARD ",302,161
"7150","GM","DE","DEU",276,"Germany",34895,82652369,150,155,9.851,51.11," RICHARD ",65,514
"206239","UK","GB","GBR",826,"United Kingdom",24193,60244834,150,154,-1.6,53," RIGBY JOHN ",302,188
"206240","UK","GB","GBR",826,"United Kingdom",24193,60244834,150,154,-1.6,53," RIQUIER RICHARIUS ",302,454
"64114","FR","FR","FRA",250,"France",55010,60990544,150,155,2.55,46.565," RIQUIER RICHARIUS ",134,454
"8575","IT","IT","ITA",380,"Italy",29411,5864636,150,39,12.8,42.7," RITA OF CASCIA ",87,148
"18761","SP","ES","ESP",724,"Spain",49904,43397491,150,39,-3.649,40.227," RITA OF CASCIA ",70,148
"64115","FR","FR","FRA",250,"France",55010,60990544,150,155,2.55,46.565," RITA OF CASCIA ",134,148
"172","RP","PH","PHL",608,"Philippines",29817,84566163,142,35,122.466,11.118," RITA OF CASCIA ",2,148
"2083","US","US","USA",840,"United States",915896,299846449,19,21,-98.606,39.622," RITA OF CASCIA ",4,148
"8022","HU","HU","HUN",348,"Hungary",9210,10086387,150,151,19.134,47.07," ROBERT OF KNARESBOROUGH ",25,95
"206241","UK","GB","GBR",826,"United Kingdom",24193,60244834,150,154,-1.6,53," ROBERT OF KNARESBOROUGH ",302,95
"8023","HU","HU","HUN",348,"Hungary",9210,10086387,150,151,19.134,47.07," ROBERT OF MOLESME ",25,54
"206242","UK","GB","GBR",826,"United Kingdom",24193,60244834,150,154,-1.6,53," ROBERT OF MOLESME ",302,54
"206243","UK","GB","GBR",826,"United Kingdom",24193,60244834,150,154,-1.6,53," ROBERTS JOHN ",302,194
"7151","GM","DE","DEU",276,"Germany",34895,82652369,150,155,9.851,51.11," ROCH ROCCO ROCK ",65,137
"64116","FR","FR","FRA",250,"France",55010,60990544,150,155,2.55,46.565," ROCH ROCCO ROCK ",134,137
"7152","GM","DE","DEU",276,"Germany",34895,82652369,150,155,9.851,51.11," RODRIGUEZ ALPHONSUS ",65,200
"64117","FR","FR","FRA",250,"France",55010,60990544,150,155,2.55,46.565," RODRIGUEZ ALPHONSUS ",134,200
"206244","UK","GB","GBR",826,"United Kingdom",24193,60244834,150,154,-1.6,53," ROE ALBAN BARTHOLOMEW ",302,211
"206245","UK","GB","GBR",826,"United Kingdom",24193,60244834,150,154,-1.6,53," ROGER OF ELLANT ",302,76
"15414","NO","NO","NOR",578,"Norway",30625,4638836,150,154,8.74,61.152," ROGNVALD RONALD ",18,74
"64118","FR","FR","FRA",250,"France",55010,60990544,150,155,2.55,46.565," ROMANUS ",134,451
"64119","FR","FR","FRA",250,"France",55010,60990544,150,155,2.55,46.565," ROMUALD OF RAVENNA ",134,19
"8576","IT","IT","ITA",380,"Italy",29411,5864636,150,39,12.8,42.7," ROSALIA OF PALERMO ",87,68
"885","JA","JP","JPN",392,"Japan",36450,127896740,142,30,139.068,36.491," RUIZ LORENZO ",7,207
"206246","UK","GB","GBR",826,"United Kingdom",24193,60244834,150,154,-1.6,53," RUMON ",302,402
"19021","SW","SE","SWE",752,"Sweden",41033,9038049,150,154,15.27,62.011," RUMWOLD RUMBOLD ",26,NA
"19022","SW","SE","SWE",752,"Sweden",41033,9038049,150,154,15.27,62.011," RUPERT ",26,504
"13814",NA,"PS","PSE",275,"Palestine",0,3762005,142,145,35.278,32.037," SABAS OF JERUSALEM ",16,391
"206247","UK","GB","GBR",826,"United Kingdom",24193,60244834,150,154,-1.6,53," SAETHRITH SAETHRYDA ",302,459
"242","GK","GG","GGY",831,"Guernsey",0,0,150,154,-2.576,49.459," SAMSON ",2,410
"206248","UK","GB","GBR",826,"United Kingdom",24193,60244834,150,154,-1.6,53," SAMSON ",302,410
"2421","GK","GG","GGY",831,"Guernsey",0,0,150,154,-2.576,49.459," SAMTHANN ",2,526
"206249","UK","GB","GBR",826,"United Kingdom",24193,60244834,150,154,-1.6,53," SAMTHANN ",302,526
"16313","PL","PL","POL",616,"Poland",30629,38195558,150,151,19.401,52.125," SARKANDER JOHN ",17,202
"211","BU","BG","BGR",100,"Bulgaria",11063,7744591,150,151,25.231,42.761," SAVA SABAS OF SERBIA ",3,100
"2371","RB","RS","SRB",688,"Serbia",0,9863026,150,39,20.806,44.032," SAVA SABAS OF SERBIA ",2,100
"1747","RS","RU","RUS",643,"Russia",1638094,143953092,150,151,96.689,61.988," SERAPHIM OF SAROV ",13,253
"1748","RS","RU","RUS",643,"Russia",1638094,143953092,150,151,96.689,61.988," SERF SERVANUS ",13,402
"1749","RS","RU","RUS",643,"Russia",1638094,143953092,150,151,96.689,61.988," SERGIUS OF RADONEZH ",13,140
"18762","SP","ES","ESP",724,"Spain",49904,43397491,150,39,-3.649,40.227," SERNIN SATURNINUS ",70,308
"8577","IT","IT","ITA",380,"Italy",29411,5864636,150,39,12.8,42.7," SETON ELIZABETH BAYLEY ",87,250
"212","BU","BG","BGR",100,"Bulgaria",11063,7744591,150,151,25.231,42.761," SEVEN APOSTLES OF BULGARIA ",3,590
"3","AL","AL","ALB",8,"Albania",2740,3153731,150,39,20.068,41.143," SEVEN APOSTLES OF BULGARIA ",1,590
"17410","RS","RU","RUS",643,"Russia",1638094,143953092,150,151,96.689,61.988," SEVEN APOSTLES OF BULGARIA ",13,590
"206250","UK","GB","GBR",826,"United Kingdom",24193,60244834,150,154,-1.6,53," SEVEN BROTHERS ",302,158
"206251","UK","GB","GBR",826,"United Kingdom",24193,60244834,150,154,-1.6,53," SEVEN SERVITE FOUNDERS ",302,105
"64120","FR","FR","FRA",250,"France",55010,60990544,150,155,2.55,46.565," SEVEN SERVITE FOUNDERS ",134,105
"7153","GM","DE","DEU",276,"Germany",34895,82652369,150,155,9.851,51.11," SEVEN SERVITE FOUNDERS ",65,105
"99","LE","LB","LBN",422,"Lebanon",1023,401074,142,145,35.888,33.92," SHARBEL MAKLOUF THE MARONITE ",1,281
"206252","UK","GB","GBR",826,"United Kingdom",24193,60244834,150,154,-1.6,53," SHERWIN RALPH ",302,175
"15415","NO","NO","NOR",578,"Norway",30625,4638836,150,154,8.74,61.152," SIGFRID ",18,25
"19023","SW","SE","SWE",752,"Sweden",41033,9038049,150,154,15.27,62.011," SIGFRID ",26,25
"4412","DA","DK","DNK",208,"Denmark",4243,5416945,150,154,9.264,56.058," SIGFRID ",16,25
"596","FI","FI","FIN",246,"Finland",30459,5246004,150,154,26.272,64.504," SIGFRID ",7,25
"4923","EG","EG","EGY",818,"Egypt",99545,72849793,2,15,29.872,26.494," SIMON ",26,6
"64121","FR","FR","FRA",250,"France",55010,60990544,150,155,2.55,46.565," SIMON OF CREPY ",134,42
"206253","UK","GB","GBR",826,"United Kingdom",24193,60244834,150,154,-1.6,53," SIMON STOCK ",302,112
"5087","EI","IE","IRL",372,"Ireland",6889,4143294,150,154,-8.152,53.177," SIMON STOCK ",93,112
"18763","SP","ES","ESP",724,"Spain",49904,43397491,150,39,-3.649,40.227," SIMON STOCK ",70,112
"206254","UK","GB","GBR",826,"United Kingdom",24193,60244834,150,154,-1.6,53," SOCRATES AND STEPHEN ",302,NA
"1613","PE","PE","PER",604,"Peru",128000,27274266,19,5,-75.552,-9.326," SOLANO FRANCIS ",7,194
"371","CO","CO","COL",170,"Colombia",103870,4494579,19,5,-73.076,3.9," SOLANO FRANCIS ",2,194
"32","CI","CL","CHL",152,"Chile",74880,16295102,19,5,-69.433,-23.389," SOLANO FRANCIS ",2,194
"1601","PA","PY","PRY",600,"Paraguay",39730,5904342,19,5,-58.391,-23.236," SOLANO FRANCIS ",2,194
"74","AR","AR","ARG",32,"Argentina",273669,38747148,19,5,-65.167,-35.377," SOLANO FRANCIS ",3,194
"16","BL","BO","BOL",68,"Bolivia",108438,9182015,19,5,-64.671,-16.715," SOLANO FRANCIS ",1,194
"210","UY","UY","URY",858,"Uruguay",17502,3325727,19,5,-56.012,-32.8," SOLANO FRANCIS ",1,194
"206255","UK","GB","GBR",826,"United Kingdom",24193,60244834,150,154,-1.6,53," SOUTHWELL ROBERT ",302,185
"206256","UK","GB","GBR",826,"United Kingdom",24193,60244834,150,154,-1.6,53," SOUTHWORTH JOHN ",302,217
"16314","PL","PL","POL",616,"Poland",30629,38195558,150,151,19.401,52.125," STANISLAUS OF CRACOW ",17,39
"1024","LH","LT","LTU",440,"Lithuania",6268,3425077,150,154,23.897,55.336," STANISLAUS OF CRACOW ",5,39
"7154","GM","DE","DEU",276,"Germany",34895,82652369,150,155,9.851,51.11," STEIN AND EDITH ",65,296
"16315","PL","PL","POL",616,"Poland",30629,38195558,150,151,19.401,52.125," STEIN AND EDITH ",17,296
"19219","SZ","CH","CHE",756,"Switzerland",4000,7424389,150,155,7.908,46.861," STEIN AND EDITH ",22,296
"206257","UK","GB","GBR",826,"United Kingdom",24193,60244834,150,154,-1.6,53," STEPHEN ",302,341
"18764","SP","ES","ESP",724,"Spain",49904,43397491,150,39,-3.649,40.227," STEPHEN I ",70,310
"206258","UK","GB","GBR",826,"United Kingdom",24193,60244834,150,154,-1.6,53," STEPHEN HARDING ",302,63
"64122","FR","FR","FRA",250,"France",55010,60990544,150,155,2.55,46.565," STEPHEN HARDING ",134,63
"8024","HU","HU","HUN",348,"Hungary",9210,10086387,150,151,19.134,47.07," STEPHEN OF HUNGARY ISTVAN ",25,23
"64123","FR","FR","FRA",250,"France",55010,60990544,150,155,2.55,46.565," STEPHEN OF MURET ",134,57
"206259","UK","GB","GBR",826,"United Kingdom",24193,60244834,150,154,-1.6,53," STEPHEN OF MURET ",302,57
"64124","FR","FR","FRA",250,"France",55010,60990544,150,155,2.55,46.565," STITHIAN STEDIANA ",134,NA
"206260","UK","GB","GBR",826,"United Kingdom",24193,60244834,150,154,-1.6,53," STITHIAN STEDIANA ",302,NA
"206261","UK","GB","GBR",826,"United Kingdom",24193,60244834,150,154,-1.6,53," STONE JOHN ",302,163
"5088","EI","IE","IRL",372,"Ireland",6889,4143294,150,154,-8.152,53.177," SUNNIVA SYNNOVE ",93,NA
"15416","NO","NO","NOR",578,"Norway",30625,4638836,150,154,8.74,61.152," SUNNIVA SYNNOVE ",18,NA
"206262","UK","GB","GBR",826,"United Kingdom",24193,60244834,150,154,-1.6,53," SWITHBERT SUIDBERT ",302,507
"206263","UK","GB","GBR",826,"United Kingdom",24193,60244834,150,154,-1.6,53," SWITHUN SWITHIN ",302,578
"8578","IT","IT","ITA",380,"Italy",29411,5864636,150,39,12.8,42.7," SYLVESTER SILVESTER ",87,337
"8579","IT","IT","ITA",380,"Italy",29411,5864636,150,39,12.8,42.7," TANCRED AND TORTHRED AND TOVA ",87,NA
"7155","GM","DE","DEU",276,"Germany",34895,82652369,150,155,9.851,51.11," TECLA THECLA OF ENGLAND OF KITZINGEN ",65,555
"206264","UK","GB","GBR",826,"United Kingdom",24193,60244834,150,154,-1.6,53," TECLA THECLA OF ENGLAND OF KITZINGEN ",302,555
"206265","UK","GB","GBR",826,"United Kingdom",24193,60244834,150,154,-1.6,53," TENENAN TININOR ",302,459
"321","CI","CL","CHL",152,"Chile",74880,16295102,19,5,-69.433,-23.389," TERESA OF LOS ANDES ",2,289
"206266","UK","GB","GBR",826,"United Kingdom",24193,60244834,150,154,-1.6,53," THECLA TECLA OF ICONIUM ",302,6
"8580","IT","IT","ITA",380,"Italy",29411,5864636,150,39,12.8,42.7," THEOBALD THIBAUT OF PROVINS ",87,32
"206267","UK","GB","GBR",826,"United Kingdom",24193,60244834,150,154,-1.6,53," THEODORE OF CANTERBURY AND TARSUS ",302,490
"5089","EI","IE","IRL",372,"Ireland",6889,4143294,150,154,-8.152,53.177," THEODORE OF CANTERBURY AND TARSUS ",93,490
"17411","RS","RU","RUS",643,"Russia",1638094,143953092,150,151,96.689,61.988," THEODOSIUS OF KIEV OF THE CAVES ",13,37
"1133","MO","MA","MAR",504,"Morocco",44630,30494991,2,15,-5.758,32.706," THERESA OF AVILA ",4,567
"64125","FR","FR","FRA",250,"France",55010,60990544,150,155,2.55,46.565," THERESA OF LISIEUX ",134,280
"826","IN","IN","IND",356,"India",297319,1134403141,142,34,78.5,21," THOMAS ",8,6
"8581","IT","IT","ITA",380,"Italy",29411,5864636,150,39,12.8,42.7," THOMAS AQUINAS ",87,115
"206268","UK","GB","GBR",826,"United Kingdom",24193,60244834,150,154,-1.6,53," THOMAS BECKET OF CANTERBURY ",302,79
"64126","FR","FR","FRA",250,"France",55010,60990544,150,155,2.55,46.565," THOMAS BECKET OF CANTERBURY ",134,79
"7156","GM","DE","DEU",276,"Germany",34895,82652369,150,155,9.851,51.11," THOMAS BECKET OF CANTERBURY ",65,79
"47","AM","AM","ARM",51,"Armenia",2820,3017661,142,145,44.563,40.534," THOMAS BECKET OF CANTERBURY ",7,79
"1194","MX","MX","MEX",484,"Mexico",190869,104266392,19,13,-102.535,23.951," THOMAS OF VILLANOVA ",5,168
"87","AS","AU","AUS",36,"Australia",768230,20310208,9,53,136.189,-24.973," THOMAS OF VILLANOVA ",4,168
"401","CU","CU","CUB",192,"Cuba",10982,11259905,19,29,-77.781,21.297," THOMAS OF VILLANOVA ",2,168
"15417","NO","NO","NOR",578,"Norway",30625,4638836,150,154,8.74,61.152," THORFINN ",18,119
"64127","FR","FR","FRA",250,"France",55010,60990544,150,155,2.55,46.565," TROPHIMUS OF ARLES ",134,308
"18765","SP","ES","ESP",724,"Spain",49904,43397491,150,39,-3.649,40.227," TURIBIUS OF MOGROVEIO ",70,190
"1614","PE","PE","PER",604,"Peru",128000,27274266,19,5,-75.552,-9.326," TURIBIUS OF MOGROVEIO ",7,190
"18766","SP","ES","ESP",724,"Spain",49904,43397491,150,39,-3.649,40.227," TWELVE APOSTLES OF IRELAND ",70,NA
"1615","PE","PE","PER",604,"Peru",128000,27274266,19,5,-75.552,-9.326," TWELVE APOSTLES OF IRELAND ",7,NA
"18767","SP","ES","ESP",724,"Spain",49904,43397491,150,39,-3.649,40.227," TYDFIL TUDFUL ",70,NA
"1616","PE","PE","PER",604,"Peru",128000,27274266,19,5,-75.552,-9.326," TYDFIL TUDFUL ",7,NA
"19024","SW","SE","SWE",752,"Sweden",41033,9038049,150,154,15.27,62.011," ULFRID WULFRID ",26,20
"206269","UK","GB","GBR",826,"United Kingdom",24193,60244834,150,154,-1.6,53," URSULA AND COMPANIONS ",302,342
"206270","UK","GB","GBR",826,"United Kingdom",24193,60244834,150,154,-1.6,53," VALENTINE ",302,308
"1287","BE","BE","BEL",56,"Belgium",0,10398049,150,155,4.664,50.643," VEDAST VAAST FOSTER ",8,395
"206271","UK","GB","GBR",826,"United Kingdom",24193,60244834,150,154,-1.6,53," VEDAST VAAST FOSTER ",302,395
"8582","IT","IT","ITA",380,"Italy",29411,5864636,150,39,12.8,42.7," VENANTIUS FORTUNATUS ",87,430
"206272","UK","GB","GBR",826,"United Kingdom",24193,60244834,150,154,-1.6,53," VICTOR ",302,326
"4924","EG","EG","EGY",818,"Egypt",99545,72849793,2,15,29.872,26.494," VICTOR ",26,NA
"4925","EG","EG","EGY",818,"Egypt",99545,72849793,2,15,29.872,26.494," VICTORIA ",26,NA
"2910","CH","CN","CHN",156,"China",932743,1312978855,142,30,106.514,33.42," VIETNAM MARTYRS OF TONKIN INDO CHINA ",12,266
"1721","RP","PH","PHL",608,"Philippines",29817,84566163,142,35,122.466,11.118," VIETNAM MARTYRS OF TONKIN INDO CHINA ",2,266
"64128","FR","FR","FRA",250,"France",55010,60990544,150,155,2.55,46.565," VIETNAM MARTYRS OF TONKIN INDO CHINA ",134,266
"206273","UK","GB","GBR",826,"United Kingdom",24193,60244834,150,154,-1.6,53," VIGOR ",302,394
"206274","UK","GB","GBR",826,"United Kingdom",24193,60244834,150,154,-1.6,53," VINCENT OF SARAGOSSA ",302,327
"200","TS","TN","TUN",788,"Tunisia",15536,10104685,2,15,9.596,35.383," VINCENT DE PAUL ",1,219
"16316","PL","PL","POL",616,"Poland",30629,38195558,150,151,19.401,52.125," VINCENT DE PAUL ",17,219
"5090","EI","IE","IRL",372,"Ireland",6889,4143294,150,154,-8.152,53.177," VINCENT DE PAUL ",93,219
"5623","AU","AT","AUT",40,"Austria",8245,8291979,150,155,14.912,47.683," VINCENT DE PAUL ",24,219
"18768","SP","ES","ESP",724,"Spain",49904,43397491,150,39,-3.649,40.227," VINCENT FERRER ",70,144
"64129","FR","FR","FRA",250,"France",55010,60990544,150,155,2.55,46.565," VINCENT FERRER ",134,144
"8583","IT","IT","ITA",380,"Italy",29411,5864636,150,39,12.8,42.7," VINCENT FERRER ",87,144
"206275","UK","GB","GBR",826,"United Kingdom",24193,60244834,150,154,-1.6,53," VINCENT FERRER ",302,144
"7157","GM","DE","DEU",276,"Germany",34895,82652369,150,155,9.851,51.11," VITUS GUY AND MODESTUS AND CRESCENTIA ",65,326
"206276","UK","GB","GBR",826,"United Kingdom",24193,60244834,150,154,-1.6,53," VITUS GUY AND MODESTUS AND CRESCENTIA ",302,326
"17412","RS","RU","RUS",643,"Russia",1638094,143953092,150,151,96.689,61.988," VLADIMIR ",13,16
"206277","UK","GB","GBR",826,"United Kingdom",24193,60244834,150,154,-1.6,53," WALARIC VALERY ",302,437
"7158","GM","DE","DEU",276,"Germany",34895,82652369,150,155,9.851,51.11," WALBURGA WALPURGIS VAUBOURG ",65,547
"64130","FR","FR","FRA",250,"France",55010,60990544,150,155,2.55,46.565," WALBURGA WALPURGIS VAUBOURG ",134,547
"206278","UK","GB","GBR",826,"United Kingdom",24193,60244834,150,154,-1.6,53," WALBURGA WALPURGIS VAUBOURG ",302,547
"206279","UK","GB","GBR",826,"United Kingdom",24193,60244834,150,154,-1.6,53," WALL JOHN MARSH ",302,221
"18769","SP","ES","ESP",724,"Spain",49904,43397491,150,39,-3.649,40.227," WALPOLE HENRY ",70,185
"206280","UK","GB","GBR",826,"United Kingdom",24193,60244834,150,154,-1.6,53," WALPOLE HENRY ",302,185
"206281","UK","GB","GBR",826,"United Kingdom",24193,60244834,150,154,-1.6,53," WANDRILLE WANDREGISILUS ",302,473
"206282","UK","GB","GBR",826,"United Kingdom",24193,60244834,150,154,-1.6,53," WARD MARGARET ",302,179
"206283","UK","GB","GBR",826,"United Kingdom",24193,60244834,150,154,-1.6,53," WEBSTER AUGUSTINE ",302,161
"206284","UK","GB","GBR",826,"United Kingdom",24193,60244834,150,154,-1.6,53," WELLS SWITHUN ",302,182
"206285","UK","GB","GBR",826,"United Kingdom",24193,60244834,150,154,-1.6,53," WHITE EUSTACE ",302,182
"7159","GM","DE","DEU",276,"Germany",34895,82652369,150,155,9.851,51.11," WIGBERT ",65,525
"206286","UK","GB","GBR",826,"United Kingdom",24193,60244834,150,154,-1.6,53," WIGBERT ",302,525
"206287","UK","GB","GBR",826,"United Kingdom",24193,60244834,150,154,-1.6,53," WILFRID ",302,502
"64131","FR","FR","FRA",250,"France",55010,60990544,150,155,2.55,46.565," WILFRID ",134,502
"16513","PO","PT","PRT",620,"Portugal",9150,10528226,150,39,-8.058,40.309," WILGEFORTIS UNCUMBER LIBERATA KUMMERNIS ",15,NA
"206288","UK","GB","GBR",826,"United Kingdom",24193,60244834,150,154,-1.6,53," WILLEHAD ",302,553
"8584","IT","IT","ITA",380,"Italy",29411,5864636,150,39,12.8,42.7," WILLIAM OF MALAVALLA ",87,73
"64132","FR","FR","FRA",250,"France",55010,60990544,150,155,2.55,46.565," WILLIAM OF MALAVALLA ",134,73
"7160","GM","DE","DEU",276,"Germany",34895,82652369,150,155,9.851,51.11," WILLIAM OF MALAVALLA ",65,73
"206289","UK","GB","GBR",826,"United Kingdom",24193,60244834,150,154,-1.6,53," WILLIAM OF NORWICH ",302,66
"206290","UK","GB","GBR",826,"United Kingdom",24193,60244834,150,154,-1.6,53," WILLIAM OF ROSKILDE ",302,34
"4413","DA","DK","DNK",208,"Denmark",4243,5416945,150,154,9.264,56.058," WILLIAM OF ROSKILDE ",16,34
"13815",NA,"PS","PSE",275,"Palestine",0,3762005,142,145,35.278,32.037," WILLIBALD WILLEBALD ",16,552
"206291","UK","GB","GBR",826,"United Kingdom",24193,60244834,150,154,-1.6,53," WILLIBALD WILLEBALD ",302,552
"7161","GM","DE","DEU",276,"Germany",34895,82652369,150,155,9.851,51.11," WILLIBALD WILLEBALD ",65,552
"5091","EI","IE","IRL",372,"Ireland",6889,4143294,150,154,-8.152,53.177," WILLIBRORD ",93,526
"206292","UK","GB","GBR",826,"United Kingdom",24193,60244834,150,154,-1.6,53," WILLIBRORD ",302,526
"7162","GM","DE","DEU",276,"Germany",34895,82652369,150,155,9.851,51.11," WILLIBRORD ",65,526
"4414","DA","DK","DNK",208,"Denmark",4243,5416945,150,154,9.264,56.058," WILLIBRORD ",16,526
"4415","DA","DK","DNK",208,"Denmark",4243,5416945,150,154,9.264,56.058," WILLIGIS ",16,14
"19025","SW","SE","SWE",752,"Sweden",41033,9038049,150,154,15.27,62.011," WILLIGIS ",26,14
"8585","IT","IT","ITA",380,"Italy",29411,5864636,150,39,12.8,42.7," WILLIGIS ",87,14
"206293","UK","GB","GBR",826,"United Kingdom",24193,60244834,150,154,-1.6,53," WINEFRIDE GWENFREWI ",302,459
"7163","GM","DE","DEU",276,"Germany",34895,82652369,150,155,9.851,51.11," WINNIBALD WINEBALD ",65,540
"206294","UK","GB","GBR",826,"United Kingdom",24193,60244834,150,154,-1.6,53," WINNIBALD WINEBALD ",302,540
"206295","UK","GB","GBR",826,"United Kingdom",24193,60244834,150,154,-1.6,53," WINWALOE WINNOL ONOLAUS ",302,402
"352","CD","TD","TCD",148,"Chad",125920,10145609,2,17,18.665,15.361," WINWALOE WINNOL ONOLAUS ",3,402
"206296","UK","GB","GBR",826,"United Kingdom",24193,60244834,150,154,-1.6,53," WIRO WERA ",302,537
"19220","SZ","CH","CHE",756,"Switzerland",4000,7424389,150,155,7.908,46.861," WOLFGANG OF REGENSBURG ",22,616
"19221","SZ","CH","CHE",756,"Switzerland",4000,7424389,150,155,7.908,46.861," WULFHAD AND RUFFIN ",22,NA
"206297","UK","GB","GBR",826,"United Kingdom",24193,60244834,150,154,-1.6,53," WULFRAM WOLFRAM ",302,459
"206298","UK","GB","GBR",826,"United Kingdom",24193,60244834,150,154,-1.6,53," WULFSTAN WULSTAN ",302,48
"64133","FR","FR","FRA",250,"France",55010,60990544,150,155,2.55,46.565," WULFSTAN WULSTAN ",134,48
"5092","EI","IE","IRL",372,"Ireland",6889,4143294,150,154,-8.152,53.177," WYLLOW ",93,NA
"16514","PO","PT","PRT",620,"Portugal",9150,10528226,150,39,-8.058,40.309," XAVIER FRANCIS ",15,69
"827","IN","IN","IND",356,"India",297319,1134403141,142,34,78.5,21," XAVIER FRANCIS ",8,69
"886","JA","JP","JPN",392,"Japan",36450,127896740,142,30,139.068,36.491," XAVIER FRANCIS ",7,69
"2911","CH","CN","CHN",156,"China",932743,1312978855,142,30,106.514,33.42," XAVIER FRANCIS ",12,69
"206299","UK","GB","GBR",826,"United Kingdom",24193,60244834,150,154,-1.6,53," YOUVILLE MARGARET D ",302,503
"8586","IT","IT","ITA",380,"Italy",29411,5864636,150,39,12.8,42.7," ZACCARIA ANTONY ",87,163
"206300","UK","GB","GBR",826,"United Kingdom",24193,60244834,150,154,-1.6,53," ZACHARIAS ",302,536
"7164","GM","DE","DEU",276,"Germany",34895,82652369,150,155,9.851,51.11," ZACHARIAS ",65,536
"57","EZ","CZ","CZE",203,"Czech Republic",7727,10191762,150,151,15.338,49.743," ZDISLAVA BERKA ",1,106
"206301","UK","GB","GBR",826,"United Kingdom",24193,60244834,150,154,-1.6,53," ZITA SITHA CITHA ",302,114
